{
"type": "FeatureCollection",
"name": "cold_chain_hub_links",
"crs": { "type": "name", "properties": { "name": "urn:ogc:def:crs:OGC:1.3:CRS84" } },
"features": [
{ "type": "Feature", "properties": { "cold_name": "明品福东盟国际冷链物流中心", "hub_name": "洛羊镇站", "hub_type": "火车站", "distance_km": 1.66 }, "geometry": { "type": "LineString", "coordinates": [ [ 102.823306, 24.93423 ], [ 102.837647, 24.935375 ] ] } },
{ "type": "Feature", "properties": { "cold_name": "云南三志物流有限公司", "hub_name": "呈贡站(暂停营业)", "hub_type": "火车站", "distance_km": 2.76 }, "geometry": { "type": "LineString", "coordinates": [ [ 102.805174, 24.914877 ], [ 102.808955, 24.927799 ] ] } },
{ "type": "Feature", "properties": { "cold_name": "掌金冷链", "hub_name": "水塘站(暂停营业)", "hub_type": "火车站", "distance_km": 7.6 }, "geometry": { "type": "LineString", "coordinates": [ [ 102.917167, 24.958076 ], [ 102.968729, 24.951279 ] ] } },
{ "type": "Feature", "properties": { "cold_name": "云南众而沃实业有限责任公司中通冷链云南管理中心", "hub_name": "水塘站(暂停营业)", "hub_type": "火车站", "distance_km": 4.88 }, "geometry": { "type": "LineString", "coordinates": [ [ 102.929235, 24.961693 ], [ 102.968729, 24.951279 ] ] } },
{ "type": "Feature", "properties": { "cold_name": "蓝象冷链物流(云南)有限公司", "hub_name": "呈贡站(暂停营业)", "hub_type": "火车站", "distance_km": 1.44 }, "geometry": { "type": "LineString", "coordinates": [ [ 102.810166, 24.926473 ], [ 102.808955, 24.927799 ] ] } },
{ "type": "Feature", "properties": { "cold_name": "中通冷链(昆明分拨中心)", "hub_name": "水塘站(暂停营业)", "hub_type": "火车站", "distance_km": 5.3 }, "geometry": { "type": "LineString", "coordinates": [ [ 102.930546, 24.963963 ], [ 102.968729, 24.951279 ] ] } },
{ "type": "Feature", "properties": { "cold_name": "中通冷链(昆明佳盟花卉市场店)", "hub_name": "昆明站", "hub_type": "火车站", "distance_km": 4.4 }, "geometry": { "type": "LineString", "coordinates": [ [ 102.728681, 25.003694 ], [ 102.722277, 25.015257 ] ] } },
{ "type": "Feature", "properties": { "cold_name": "思楠冷链", "hub_name": "呈贡站(暂停营业)", "hub_type": "火车站", "distance_km": 6.14 }, "geometry": { "type": "LineString", "coordinates": [ [ 102.774764, 24.900843 ], [ 102.808955, 24.927799 ] ] } },
{ "type": "Feature", "properties": { "cold_name": "云南昆旺冷链运输有限公司", "hub_name": "呈贡站(暂停营业)", "hub_type": "火车站", "distance_km": 5.83 }, "geometry": { "type": "LineString", "coordinates": [ [ 102.775375, 24.900025 ], [ 102.808955, 24.927799 ] ] } },
{ "type": "Feature", "properties": { "cold_name": "云南中明冷链运输有限公司", "hub_name": "昆明长水国际机场", "hub_type": "机场", "distance_km": 10.46 }, "geometry": { "type": "LineString", "coordinates": [ [ 102.881375, 25.024225 ], [ 102.935835, 25.099565 ] ] } },
{ "type": "Feature", "properties": { "cold_name": "云南·瞬达冷链物流(昆明点)", "hub_name": "牛街庄站", "hub_type": "火车站", "distance_km": 3.44 }, "geometry": { "type": "LineString", "coordinates": [ [ 102.788589, 25.01845 ], [ 102.780872, 25.005995 ] ] } },
{ "type": "Feature", "properties": { "cold_name": "上海春风物流昆明分公司(云南极速配物流有限公司)", "hub_name": "昆明站", "hub_type": "火车站", "distance_km": 5.07 }, "geometry": { "type": "LineString", "coordinates": [ [ 102.714225, 25.011765 ], [ 102.722277, 25.015257 ] ] } },
{ "type": "Feature", "properties": { "cold_name": "鑫亚冷链物流", "hub_name": "呈贡站(暂停营业)", "hub_type": "火车站", "distance_km": 6.14 }, "geometry": { "type": "LineString", "coordinates": [ [ 102.775725, 24.901718 ], [ 102.808955, 24.927799 ] ] } },
{ "type": "Feature", "properties": { "cold_name": "云南汇全冷链物流有限公司", "hub_name": "昆明长水国际机场", "hub_type": "机场", "distance_km": 9.44 }, "geometry": { "type": "LineString", "coordinates": [ [ 102.889546, 25.035555 ], [ 102.935835, 25.099565 ] ] } },
{ "type": "Feature", "properties": { "cold_name": "云南吉云冷链物流有限公司", "hub_name": "水塘站(暂停营业)", "hub_type": "火车站", "distance_km": 18.19 }, "geometry": { "type": "LineString", "coordinates": [ [ 102.876525, 24.953525 ], [ 102.968729, 24.951279 ] ] } },
{ "type": "Feature", "properties": { "cold_name": "云南凯健投资有限公司", "hub_name": "水塘站(暂停营业)", "hub_type": "火车站", "distance_km": 7.22 }, "geometry": { "type": "LineString", "coordinates": [ [ 102.914192, 24.955585 ], [ 102.968729, 24.951279 ] ] } },
{ "type": "Feature", "properties": { "cold_name": "云南汇鑫达冷链物流有限公司", "hub_name": "洛羊镇站", "hub_type": "火车站", "distance_km": 1.66 }, "geometry": { "type": "LineString", "coordinates": [ [ 102.82324, 24.93326 ], [ 102.837647, 24.935375 ] ] } },
{ "type": "Feature", "properties": { "cold_name": "云南润涵冷链物流", "hub_name": "呈贡站(暂停营业)", "hub_type": "火车站", "distance_km": 6.14 }, "geometry": { "type": "LineString", "coordinates": [ [ 102.775464, 24.901502 ], [ 102.808955, 24.927799 ] ] } },
{ "type": "Feature", "properties": { "cold_name": "呈贡合硕物流冷链", "hub_name": "呈贡站(暂停营业)", "hub_type": "火车站", "distance_km": 5.47 }, "geometry": { "type": "LineString", "coordinates": [ [ 102.780725, 24.910725 ], [ 102.808955, 24.927799 ] ] } },
{ "type": "Feature", "properties": { "cold_name": "云南嘉行冷链", "hub_name": "昆明长水国际机场S1卫星厅", "hub_type": "机场", "distance_km": 5.45 }, "geometry": { "type": "LineString", "coordinates": [ [ 102.936985, 25.066865 ], [ 102.938846, 25.108575 ] ] } },
{ "type": "Feature", "properties": { "cold_name": "云南陆航冷链物流有限公司", "hub_name": "呈贡站(暂停营业)", "hub_type": "火车站", "distance_km": 5.49 }, "geometry": { "type": "LineString", "coordinates": [ [ 102.78035, 24.910077 ], [ 102.808955, 24.927799 ] ] } },
{ "type": "Feature", "properties": { "cold_name": "云南泰通冷链物流有限公司", "hub_name": "水塘站(暂停营业)", "hub_type": "火车站", "distance_km": 5.35 }, "geometry": { "type": "LineString", "coordinates": [ [ 102.930273, 24.964366 ], [ 102.968729, 24.951279 ] ] } },
{ "type": "Feature", "properties": { "cold_name": "万纬昆明长水空港物流园(一期)", "hub_name": "昆明长水国际机场T2航站楼(建设中)", "hub_type": "机场", "distance_km": 2.82 }, "geometry": { "type": "LineString", "coordinates": [ [ 102.979775, 25.114172 ], [ 102.94529, 25.117175 ] ] } },
{ "type": "Feature", "properties": { "cold_name": "中通冷链(五华区营业部)", "hub_name": "昆明站", "hub_type": "火车站", "distance_km": 5.43 }, "geometry": { "type": "LineString", "coordinates": [ [ 102.693752, 25.035533 ], [ 102.722277, 25.015257 ] ] } },
{ "type": "Feature", "properties": { "cold_name": "滇丰冷链昆明有限公司", "hub_name": "洛羊镇站", "hub_type": "火车站", "distance_km": 6.79 }, "geometry": { "type": "LineString", "coordinates": [ [ 102.877011, 24.954644 ], [ 102.837647, 24.935375 ] ] } },
{ "type": "Feature", "properties": { "cold_name": "云聚物流东盟冷链营业部(物丰街店)", "hub_name": "洛羊镇站", "hub_type": "火车站", "distance_km": 1.76 }, "geometry": { "type": "LineString", "coordinates": [ [ 102.82222, 24.933267 ], [ 102.837647, 24.935375 ] ] } },
{ "type": "Feature", "properties": { "cold_name": "昆明凌云物流有限公司", "hub_name": "牛街庄站", "hub_type": "火车站", "distance_km": 4.85 }, "geometry": { "type": "LineString", "coordinates": [ [ 102.768475, 25.030925 ], [ 102.780872, 25.005995 ] ] } },
{ "type": "Feature", "properties": { "cold_name": "云南总镖头冷链物流有限公司", "hub_name": "广南卫站", "hub_type": "火车站", "distance_km": 6.57 }, "geometry": { "type": "LineString", "coordinates": [ [ 102.839948, 24.907436 ], [ 102.895419, 24.919757 ] ] } },
{ "type": "Feature", "properties": { "cold_name": "云南鲜生活冷链物流有限公司", "hub_name": "牛街庄站", "hub_type": "火车站", "distance_km": 3.94 }, "geometry": { "type": "LineString", "coordinates": [ [ 102.781429, 24.978561 ], [ 102.780872, 25.005995 ] ] } },
{ "type": "Feature", "properties": { "cold_name": "河北朗格物流", "hub_name": "洛羊镇站", "hub_type": "火车站", "distance_km": 1.66 }, "geometry": { "type": "LineString", "coordinates": [ [ 102.82357, 24.934174 ], [ 102.837647, 24.935375 ] ] } },
{ "type": "Feature", "properties": { "cold_name": "云南明汇冷链运输有限公司", "hub_name": "洛羊镇站", "hub_type": "火车站", "distance_km": 6.79 }, "geometry": { "type": "LineString", "coordinates": [ [ 102.877152, 24.954972 ], [ 102.837647, 24.935375 ] ] } },
{ "type": "Feature", "properties": { "cold_name": "河北亿鑫冷藏物流有限公司昆明分公司", "hub_name": "昆明南站", "hub_type": "火车站", "distance_km": 16.81 }, "geometry": { "type": "LineString", "coordinates": [ [ 102.875275, 24.954725 ], [ 102.86087, 24.869978 ] ] } },
{ "type": "Feature", "properties": { "cold_name": "华北冷链专线", "hub_name": "呈贡站(暂停营业)", "hub_type": "火车站", "distance_km": 6.14 }, "geometry": { "type": "LineString", "coordinates": [ [ 102.77591, 24.901876 ], [ 102.808955, 24.927799 ] ] } },
{ "type": "Feature", "properties": { "cold_name": "众鑫冷链·鑫荣供应链", "hub_name": "洛羊镇站", "hub_type": "火车站", "distance_km": 1.51 }, "geometry": { "type": "LineString", "coordinates": [ [ 102.823525, 24.934575 ], [ 102.837647, 24.935375 ] ] } },
{ "type": "Feature", "properties": { "cold_name": "中通冷链(朱家村立交店)", "hub_name": "牛街庄站", "hub_type": "火车站", "distance_km": 2.91 }, "geometry": { "type": "LineString", "coordinates": [ [ 102.771003, 25.00379 ], [ 102.780872, 25.005995 ] ] } },
{ "type": "Feature", "properties": { "cold_name": "云南东达冷链运输有限公司", "hub_name": "洛羊镇站", "hub_type": "火车站", "distance_km": 6.79 }, "geometry": { "type": "LineString", "coordinates": [ [ 102.87709, 24.95485 ], [ 102.837647, 24.935375 ] ] } },
{ "type": "Feature", "properties": { "cold_name": "云南大昌行储运有限公司", "hub_name": "洛羊镇站", "hub_type": "火车站", "distance_km": 3.39 }, "geometry": { "type": "LineString", "coordinates": [ [ 102.846195, 24.946687 ], [ 102.837647, 24.935375 ] ] } },
{ "type": "Feature", "properties": { "cold_name": "东盟国际冷链物流中心2期", "hub_name": "洛羊镇站", "hub_type": "火车站", "distance_km": 1.51 }, "geometry": { "type": "LineString", "coordinates": [ [ 102.823975, 24.934675 ], [ 102.837647, 24.935375 ] ] } },
{ "type": "Feature", "properties": { "cold_name": "云南煌家冷链物流有限公司", "hub_name": "牛街庄站", "hub_type": "火车站", "distance_km": 2.76 }, "geometry": { "type": "LineString", "coordinates": [ [ 102.776165, 25.020328 ], [ 102.780872, 25.005995 ] ] } },
{ "type": "Feature", "properties": { "cold_name": "云南花运通冷链物流有限公司", "hub_name": "呈贡站(暂停营业)", "hub_type": "火车站", "distance_km": 5.53 }, "geometry": { "type": "LineString", "coordinates": [ [ 102.790088, 24.89337 ], [ 102.808955, 24.927799 ] ] } },
{ "type": "Feature", "properties": { "cold_name": "云南亚中冷链医药物流有限责任公司", "hub_name": "麻园站", "hub_type": "火车站", "distance_km": 5.75 }, "geometry": { "type": "LineString", "coordinates": [ [ 102.649246, 25.077037 ], [ 102.685609, 25.052447 ] ] } },
{ "type": "Feature", "properties": { "cold_name": "云南恒延冷链发展有限公司", "hub_name": "昆阳站", "hub_type": "火车站", "distance_km": 14.7 }, "geometry": { "type": "LineString", "coordinates": [ [ 102.585132, 24.728693 ], [ 102.609061, 24.662859 ] ] } },
{ "type": "Feature", "properties": { "cold_name": "昆明西兴冷链物流有限公司", "hub_name": "石咀站(暂停营业)", "hub_type": "火车站", "distance_km": 6.74 }, "geometry": { "type": "LineString", "coordinates": [ [ 102.616902, 24.997006 ], [ 102.629555, 25.017059 ] ] } },
{ "type": "Feature", "properties": { "cold_name": "旱邦冷链调度中心", "hub_name": "牛街庄站", "hub_type": "火车站", "distance_km": 10.55 }, "geometry": { "type": "LineString", "coordinates": [ [ 102.797775, 24.967268 ], [ 102.780872, 25.005995 ] ] } },
{ "type": "Feature", "properties": { "cold_name": "云南交投物流(聚和)跨境冷链运营中心", "hub_name": "洛羊镇站", "hub_type": "火车站", "distance_km": 4.35 }, "geometry": { "type": "LineString", "coordinates": [ [ 102.839475, 24.928325 ], [ 102.837647, 24.935375 ] ] } },
{ "type": "Feature", "properties": { "cold_name": "云南又一顺国际冷链物流有限公司", "hub_name": "石咀站(暂停营业)", "hub_type": "火车站", "distance_km": 10.06 }, "geometry": { "type": "LineString", "coordinates": [ [ 102.669737, 25.000058 ], [ 102.629555, 25.017059 ] ] } },
{ "type": "Feature", "properties": { "cold_name": "安宁市中老铁路国际冷链物流基地(建设中)", "hub_name": "牧羊村站", "hub_type": "火车站", "distance_km": 22.28 }, "geometry": { "type": "LineString", "coordinates": [ [ 102.521375, 24.889653 ], [ 102.421658, 24.985882 ] ] } },
{ "type": "Feature", "properties": { "cold_name": "玉溪果韵冷链物流有限公司", "hub_name": "玉溪站", "hub_type": "火车站", "distance_km": 26.43 }, "geometry": { "type": "LineString", "coordinates": [ [ 102.715658, 24.304619 ], [ 102.512214, 24.33922 ] ] } },
{ "type": "Feature", "properties": { "cold_name": "通海县中通冷链", "hub_name": "通海站", "hub_type": "火车站", "distance_km": 5.61 }, "geometry": { "type": "LineString", "coordinates": [ [ 102.651741, 24.154233 ], [ 102.668564, 24.116377 ] ] } },
{ "type": "Feature", "properties": { "cold_name": "华溪双甜果蔬仓储冷链物流中心", "hub_name": "通海站", "hub_type": "火车站", "distance_km": 63.55 }, "geometry": { "type": "LineString", "coordinates": [ [ 103.007669, 24.061205 ], [ 102.668564, 24.116377 ] ] } },
{ "type": "Feature", "properties": { "cold_name": "云南越来顺冷链物流有限公司(车后中心)", "hub_name": "玉溪站", "hub_type": "火车站", "distance_km": 8.44 }, "geometry": { "type": "LineString", "coordinates": [ [ 102.518612, 24.275305 ], [ 102.512214, 24.33922 ] ] } },
{ "type": "Feature", "properties": { "cold_name": "陆腾智能冷链物流园冷库", "hub_name": "陆良站", "hub_type": "火车站", "distance_km": 33.24 }, "geometry": { "type": "LineString", "coordinates": [ [ 103.661125, 25.062275 ], [ 103.697892, 24.846654 ] ] } },
{ "type": "Feature", "properties": { "cold_name": "冷链物流包装服务配送中心", "hub_name": "陆良站", "hub_type": "火车站", "distance_km": 34.79 }, "geometry": { "type": "LineString", "coordinates": [ [ 103.662086, 25.055264 ], [ 103.697892, 24.846654 ] ] } },
{ "type": "Feature", "properties": { "cold_name": "灿林农业冷链物流园", "hub_name": "陆良站", "hub_type": "火车站", "distance_km": 34.47 }, "geometry": { "type": "LineString", "coordinates": [ [ 103.658678, 25.052389 ], [ 103.697892, 24.846654 ] ] } },
{ "type": "Feature", "properties": { "cold_name": "陆腾智能冷链物流园", "hub_name": "陆良站", "hub_type": "火车站", "distance_km": 34.84 }, "geometry": { "type": "LineString", "coordinates": [ [ 103.660972, 25.062088 ], [ 103.697892, 24.846654 ] ] } },
{ "type": "Feature", "properties": { "cold_name": "待冉冷链", "hub_name": "船篷子码头", "hub_type": "高速", "distance_km": 31.46 }, "geometry": { "type": "LineString", "coordinates": [ [ 103.412621, 26.195378 ], [ 103.274203, 26.340776 ] ] } },
{ "type": "Feature", "properties": { "cold_name": "姚安好平物流", "hub_name": "沙桥站", "hub_type": "火车站", "distance_km": 50.06 }, "geometry": { "type": "LineString", "coordinates": [ [ 101.243675, 25.520825 ], [ 101.14548, 25.24514 ] ] } },
{ "type": "Feature", "properties": { "cold_name": "禄丰市电子商务冷链物流中心", "hub_name": "禄丰南站", "hub_type": "火车站", "distance_km": 2.81 }, "geometry": { "type": "LineString", "coordinates": [ [ 102.069473, 25.127077 ], [ 102.063658, 25.120056 ] ] } },
{ "type": "Feature", "properties": { "cold_name": "天锋冷链物流", "hub_name": "元谋西站", "hub_type": "火车站", "distance_km": 7.22 }, "geometry": { "type": "LineString", "coordinates": [ [ 101.850079, 25.738461 ], [ 101.840562, 25.70816 ] ] } },
{ "type": "Feature", "properties": { "cold_name": "云南高原农产品(姚安)冷链物流产业园", "hub_name": "沙桥站", "hub_type": "火车站", "distance_km": 58.84 }, "geometry": { "type": "LineString", "coordinates": [ [ 101.234425, 25.593835 ], [ 101.14548, 25.24514 ] ] } },
{ "type": "Feature", "properties": { "cold_name": "和立鑫达冷链加工新市场", "hub_name": "永仁站", "hub_type": "火车站", "distance_km": 41.88 }, "geometry": { "type": "LineString", "coordinates": [ [ 101.679856, 26.019635 ], [ 101.710362, 26.0489 ] ] } },
{ "type": "Feature", "properties": { "cold_name": "元谋顺祥仓储物流有限公司", "hub_name": "元谋西站", "hub_type": "火车站", "distance_km": 7.66 }, "geometry": { "type": "LineString", "coordinates": [ [ 101.868742, 25.686466 ], [ 101.840562, 25.70816 ] ] } },
{ "type": "Feature", "properties": { "cold_name": "泸西县双其冷链物流有限公司", "hub_name": "陆良站", "hub_type": "火车站", "distance_km": 41.49 }, "geometry": { "type": "LineString", "coordinates": [ [ 103.681692, 24.6256 ], [ 103.697892, 24.846654 ] ] } },
{ "type": "Feature", "properties": { "cold_name": "佳沃水果分选加工和冷链物流园区", "hub_name": "红河站", "hub_type": "火车站", "distance_km": 3.22 }, "geometry": { "type": "LineString", "coordinates": [ [ 103.327255, 23.452253 ], [ 103.352996, 23.450455 ] ] } },
{ "type": "Feature", "properties": { "cold_name": "春宜富冷链物流中心", "hub_name": "吴家庄站", "hub_type": "火车站", "distance_km": 4.57 }, "geometry": { "type": "LineString", "coordinates": [ [ 102.495404, 23.725289 ], [ 102.520804, 23.711953 ] ] } },
{ "type": "Feature", "properties": { "cold_name": "中通冷链红河石屏网点", "hub_name": "吴家庄站", "hub_type": "火车站", "distance_km": 3.82 }, "geometry": { "type": "LineString", "coordinates": [ [ 102.499859, 23.716693 ], [ 102.520804, 23.711953 ] ] } },
{ "type": "Feature", "properties": { "cold_name": "瞬达冷链物流杨梅专线(老杜仓)", "hub_name": "坝心站", "hub_type": "火车站", "distance_km": 10.94 }, "geometry": { "type": "LineString", "coordinates": [ [ 102.560165, 23.64014 ], [ 102.640294, 23.657614 ] ] } },
{ "type": "Feature", "properties": { "cold_name": "蒙自市芷村镇双利枇杷冷链物流分拣中心", "hub_name": "黑龙潭站", "hub_type": "火车站", "distance_km": 12.92 }, "geometry": { "type": "LineString", "coordinates": [ [ 103.544324, 23.339179 ], [ 103.460589, 23.374232 ] ] } },
{ "type": "Feature", "properties": { "cold_name": "青壹农业蓝莓葡萄冷链加工冷链配送中心", "hub_name": "南营寨站", "hub_type": "火车站", "distance_km": 18.39 }, "geometry": { "type": "LineString", "coordinates": [ [ 102.758003, 23.557339 ], [ 102.881547, 23.623125 ] ] } },
{ "type": "Feature", "properties": { "cold_name": "瞬达冷链物流", "hub_name": "团山车站", "hub_type": "火车站", "distance_km": 18.51 }, "geometry": { "type": "LineString", "coordinates": [ [ 102.636158, 23.647136 ], [ 102.744007, 23.645559 ] ] } },
{ "type": "Feature", "properties": { "cold_name": "云南汇全冷链物流", "hub_name": "吴家庄站", "hub_type": "火车站", "distance_km": 29.35 }, "geometry": { "type": "LineString", "coordinates": [ [ 102.635925, 23.647375 ], [ 102.520804, 23.711953 ] ] } },
{ "type": "Feature", "properties": { "cold_name": "大理海建绿色智慧冷链物流中心", "hub_name": "大理凤仪机场", "hub_type": "机场", "distance_km": 9.65 }, "geometry": { "type": "LineString", "coordinates": [ [ 100.309626, 25.647077 ], [ 100.320952, 25.646965 ] ] } },
{ "type": "Feature", "properties": { "cold_name": "宾川华侨庄园冷链物流", "hub_name": "大理凤仪机场", "hub_type": "机场", "distance_km": 45.51 }, "geometry": { "type": "LineString", "coordinates": [ [ 100.60065, 25.806856 ], [ 100.320952, 25.646965 ] ] } },
{ "type": "Feature", "properties": { "cold_name": "八里路物流城", "hub_name": "祥云站", "hub_type": "火车站", "distance_km": 2.4 }, "geometry": { "type": "LineString", "coordinates": [ [ 100.564066, 25.460463 ], [ 100.557865, 25.450128 ] ] } },
{ "type": "Feature", "properties": { "cold_name": "泰兴冷链物流中心", "hub_name": "沐滂站", "hub_type": "火车站", "distance_km": 9.78 }, "geometry": { "type": "LineString", "coordinates": [ [ 100.769994, 25.462324 ], [ 100.771124, 25.399627 ] ] } },
{ "type": "Feature", "properties": { "cold_name": "剑川县文智冷链物流有限责任公司", "hub_name": "拉市海站", "hub_type": "火车站", "distance_km": 59.76 }, "geometry": { "type": "LineString", "coordinates": [ [ 99.91311, 26.544575 ], [ 100.168467, 26.881174 ] ] } },
{ "type": "Feature", "properties": { "cold_name": "乐递汇滇西冷链共配中心", "hub_name": "大理站", "hub_type": "火车站", "distance_km": 4.72 }, "geometry": { "type": "LineString", "coordinates": [ [ 100.283858, 25.60436 ], [ 100.250635, 25.589569 ] ] } },
{ "type": "Feature", "properties": { "cold_name": "大理秀园农产品冷链物流配送中心", "hub_name": "大理站", "hub_type": "火车站", "distance_km": 14.76 }, "geometry": { "type": "LineString", "coordinates": [ [ 100.184292, 25.679551 ], [ 100.250635, 25.589569 ] ] } },
{ "type": "Feature", "properties": { "cold_name": "鹤庆县沪滇协作冷链物流", "hub_name": "鹤庆站", "hub_type": "火车站", "distance_km": 11.38 }, "geometry": { "type": "LineString", "coordinates": [ [ 100.155995, 26.56817 ], [ 100.216432, 26.55571 ] ] } },
{ "type": "Feature", "properties": { "cold_name": "剑川智慧冷链物流有限公司", "hub_name": "拉市海站", "hub_type": "火车站", "distance_km": 60.4 }, "geometry": { "type": "LineString", "coordinates": [ [ 99.913016, 26.517101 ], [ 100.168467, 26.881174 ] ] } },
{ "type": "Feature", "properties": { "cold_name": "宾川县冷链物流中心", "hub_name": "大理凤仪机场", "hub_type": "机场", "distance_km": 43.39 }, "geometry": { "type": "LineString", "coordinates": [ [ 100.58784, 25.790537 ], [ 100.320952, 25.646965 ] ] } },
{ "type": "Feature", "properties": { "cold_name": "弥渡马帮冷链物流有限公司", "hub_name": "弥渡站", "hub_type": "火车站", "distance_km": 19.21 }, "geometry": { "type": "LineString", "coordinates": [ [ 100.453625, 25.375675 ], [ 100.423585, 25.491118 ] ] } },
{ "type": "Feature", "properties": { "cold_name": "中通冷链", "hub_name": "祥云站", "hub_type": "火车站", "distance_km": 2.4 }, "geometry": { "type": "LineString", "coordinates": [ [ 100.565519, 25.461219 ], [ 100.557865, 25.450128 ] ] } },
{ "type": "Feature", "properties": { "cold_name": "巍山县冷链物流中心", "hub_name": "巍山站", "hub_type": "火车站", "distance_km": 7.22 }, "geometry": { "type": "LineString", "coordinates": [ [ 100.284645, 25.292234 ], [ 100.294004, 25.229618 ] ] } }
]
}
