{
"type": "FeatureCollection",
"name": "isochrone_12h",
"crs": { "type": "name", "properties": { "name": "urn:ogc:def:crs:OGC:1.3:CRS84" } },
"features": [
{ "type": "Feature", "properties": { "threshold_h": 12, "label": "12h" }, "geometry": { "type": "Polygon", "coordinates": [ [ [ 98.6050051, 28.9987816 ], [ 98.6087998, 29.0343974 ], [ 98.6088758, 29.0341164 ], [ 98.6300567, 28.9776143 ], [ 98.6309331, 28.9760401 ], [ 98.6580763, 28.9339701 ], [ 98.6585224, 28.9331747 ], [ 98.6586712, 28.9325817 ], [ 98.6586299, 28.9320249 ], [ 98.6572371, 28.9141278 ], [ 98.6682127, 28.8473708 ], [ 98.6683736, 28.8469009 ], [ 98.6684702, 28.8465626 ], [ 98.6783085, 28.7791698 ], [ 98.6785338, 28.7784457 ], [ 98.6791561, 28.7760666 ], [ 98.6831365, 28.7559308 ], [ 98.8783827, 28.6024156 ], [ 99.1247892, 28.7023564 ], [ 99.11354, 28.7638268 ], [ 99.1132611, 28.7645275 ], [ 99.1127677, 28.7657574 ], [ 99.1124367, 28.7674949 ], [ 99.1123813, 28.7682612 ], [ 99.1047641, 28.8077694 ], [ 99.1028573, 28.8146684 ], [ 99.1028282, 28.8147805 ], [ 99.1023754, 28.8167957 ], [ 99.0242866, 28.9327082 ], [ 98.9733932, 28.9684649 ], [ 98.9731613, 28.968619 ], [ 98.9730271, 28.9687201 ], [ 98.9729748, 28.9689061 ], [ 98.93969, 29.040783 ], [ 98.9399314, 29.040912 ], [ 98.940154, 29.0409824 ], [ 99.1117751, 29.2176915 ], [ 99.1137983, 29.2502295 ], [ 99.114211, 29.2502459 ], [ 99.1143875, 29.2502349 ], [ 99.1145163, 29.2502162 ], [ 99.1187005, 29.2481802 ], [ 99.1188132, 29.2480959 ], [ 99.1203259, 29.246893 ], [ 99.1525964, 29.2130748 ], [ 99.1525237, 29.2126693 ], [ 99.1522448, 29.2113161 ], [ 99.1520946, 29.2107262 ], [ 99.1243601, 29.0229831 ], [ 99.124875, 29.0185549 ], [ 99.1387179, 28.9386037 ], [ 99.1555391, 28.7489557 ], [ 99.1787067, 28.678724 ], [ 99.1787926, 28.6782581 ], [ 99.1828636, 28.623653 ], [ 99.1835296, 28.6181876 ], [ 99.3771353, 28.4498105 ], [ 99.4281268, 28.4655029 ], [ 99.4326651, 28.4669814 ], [ 99.4665953, 28.4752624 ], [ 99.5256644, 28.498886 ], [ 99.5376179, 28.5045081 ], [ 99.5681808, 28.520514 ], [ 99.5848751, 28.5314575 ], [ 99.6909606, 28.7653267 ], [ 99.6911001, 28.766286 ], [ 99.6911752, 28.7664929 ], [ 99.6915722, 28.767518 ], [ 99.6920657, 28.768261 ], [ 99.6923983, 28.768562 ], [ 99.6929884, 28.7689005 ], [ 99.6932244, 28.7689099 ], [ 99.7854465, 28.7639084 ], [ 99.7871129, 28.7639317 ], [ 99.7881849, 28.76382 ], [ 99.8086538, 28.7606938 ], [ 99.8087546, 28.7606752 ], [ 99.8088192, 28.7606003 ], [ 99.8609127, 28.6733543 ], [ 99.8610727, 28.6730743 ], [ 99.8615827, 28.6718744 ], [ 99.8624427, 28.6698344 ], [ 99.8465273, 28.5941375 ], [ 99.8376009, 28.5573841 ], [ 99.8217641, 28.5080254 ], [ 99.8195101, 28.4956478 ], [ 99.8193882, 28.4953999 ], [ 99.8112279, 28.4784023 ], [ 99.8056042, 28.463864 ], [ 99.8055737, 28.4637791 ], [ 99.8055505, 28.4637241 ], [ 99.8051613, 28.462883 ], [ 99.8051131, 28.4627902 ], [ 99.8033411, 28.4597152 ], [ 99.799447, 28.45266 ], [ 99.7994261, 28.4526253 ], [ 99.7735886, 28.3509423 ], [ 99.992622, 28.236841 ], [ 99.99833, 28.23979 ], [ 100.010833, 28.243278 ], [ 100.0581329, 28.2601494 ], [ 100.088456, 28.272661 ], [ 100.0888985, 28.2728544 ], [ 100.089298, 28.272942 ], [ 100.0896441, 28.2729635 ], [ 100.0899354, 28.2729693 ], [ 100.1168437, 28.2732449 ], [ 100.1170532, 28.2732515 ], [ 100.1172779, 28.2732076 ], [ 100.1251405, 28.2711961 ], [ 100.1483639, 28.2623784 ], [ 100.1840258, 28.250288 ], [ 100.1900339, 28.2471691 ], [ 100.1903282, 28.2470108 ], [ 100.1876171, 28.2474943 ], [ 100.1632784, 28.2513055 ], [ 100.1604545, 28.2516867 ], [ 100.077865, 28.252871 ], [ 99.9674481, 28.026088 ], [ 99.999559, 27.8639838 ], [ 100.178748, 27.7998853 ], [ 100.2016569, 27.8045038 ], [ 100.2017498, 27.8045162 ], [ 100.2266729, 27.8075459 ], [ 100.2269679, 27.8075696 ], [ 100.4266798, 27.8728165 ], [ 100.4550041, 27.8969189 ], [ 100.6943, 27.826837 ], [ 100.7695746, 27.808079 ], [ 100.8494153, 27.6780077 ], [ 100.8894203, 27.4884843 ], [ 101.069062, 27.354424 ], [ 101.069948, 27.353652 ], [ 101.071022, 27.352237 ], [ 101.0724603, 27.3488749 ], [ 100.9757238, 27.2252463 ], [ 100.9773234, 27.0749319 ], [ 101.1311299, 26.9795356 ], [ 101.1326126, 26.9795216 ], [ 101.1345079, 26.9795123 ], [ 101.1465789, 26.9798752 ], [ 101.1749082, 26.9802475 ], [ 101.1751902, 26.9802568 ], [ 101.1754094, 26.9802382 ], [ 101.1755974, 26.9802196 ], [ 101.1760354, 26.9801354 ], [ 101.1762714, 26.9799681 ], [ 101.1763457, 26.9799012 ], [ 101.3395162, 26.8578976 ], [ 101.4659164, 26.8082952 ], [ 101.4663254, 26.8080515 ], [ 101.4667278, 26.8077403 ], [ 101.4678328, 26.8049279 ], [ 101.4678704, 26.8048082 ], [ 101.4681225, 26.8039368 ], [ 101.4682083, 26.8033574 ], [ 101.471722, 26.7590113 ], [ 101.4703273, 26.7401374 ], [ 101.4878948, 26.5991637 ], [ 101.7363008, 26.4929664 ], [ 101.7342763, 26.4901981 ], [ 101.7323135, 26.4877756 ], [ 101.717198, 26.2725064 ], [ 101.831342, 26.2010512 ], [ 101.9387376, 26.1642637 ], [ 101.9399875, 26.163657 ], [ 101.940068, 26.1635463 ], [ 101.9406205, 26.1613314 ], [ 101.9407514, 26.1606145 ], [ 101.9407385, 26.1602674 ], [ 101.9404301, 26.1586688 ], [ 102.0736094, 25.9791949 ], [ 102.2201984, 26.1359732 ], [ 102.2162309, 26.1608067 ], [ 102.2177973, 26.1628386 ], [ 102.2178403, 26.1628891 ], [ 102.2178885, 26.1629349 ], [ 102.2233871, 26.1671959 ], [ 102.2234997, 26.1672825 ], [ 102.2242615, 26.1678097 ], [ 102.2272369, 26.1697472 ], [ 102.2297803, 26.1710165 ], [ 102.389209, 26.3097658 ], [ 102.3962313, 26.3118384 ], [ 102.5920705, 26.3692689 ], [ 102.5925015, 26.369474 ], [ 102.6244167, 26.3526344 ], [ 102.6246147, 26.3525379 ], [ 102.8792898, 26.3571706 ], [ 102.9922871, 26.4834302 ], [ 103.0138503, 26.6823947 ], [ 103.0138154, 26.6825556 ], [ 103.0128039, 26.6883348 ], [ 103.0127815, 26.688457 ], [ 103.0047703, 26.7282075 ], [ 103.0047534, 26.7282806 ], [ 102.996911, 26.758625 ], [ 102.9495549, 26.8645775 ], [ 102.9382718, 26.8807081 ], [ 102.9381586, 26.8808608 ], [ 102.9380539, 26.8810183 ], [ 102.9171477, 26.9111421 ], [ 102.8737169, 26.9718123 ], [ 102.8851563, 27.2193441 ], [ 102.880571, 27.255691 ], [ 102.87857, 27.2766959 ], [ 102.8728172, 27.3385423 ], [ 102.941487, 27.414259 ], [ 102.942366, 27.4152439 ], [ 102.944447, 27.417153 ], [ 102.944692, 27.417284 ], [ 102.9452943, 27.4175384 ], [ 102.945458, 27.4176029 ], [ 102.949078, 27.418463 ], [ 102.9505703, 27.4184507 ], [ 103.1774572, 27.5653952 ], [ 103.2747645, 27.6387185 ], [ 103.2795424, 27.6431385 ], [ 103.3213885, 27.6729421 ], [ 103.363363, 27.7123471 ], [ 103.3638174, 27.7128256 ], [ 103.3777029, 27.724858 ], [ 103.5041181, 27.9086403 ], [ 103.4503682, 28.0604838 ], [ 103.4499281, 28.061345 ], [ 103.4499221, 28.0615647 ], [ 103.4498998, 28.0650136 ], [ 103.4499648, 28.0654788 ], [ 103.4727563, 28.1178492 ], [ 103.4727899, 28.1178953 ], [ 103.5718503, 28.2239226 ], [ 103.5721863, 28.224166 ], [ 103.5732914, 28.2249357 ], [ 103.573758, 28.2251298 ], [ 103.5864924, 28.2306954 ], [ 103.5886689, 28.2316854 ], [ 103.6315556, 28.2557413 ], [ 103.6371692, 28.2574546 ], [ 103.6374499, 28.257466 ], [ 103.6379059, 28.2573699 ], [ 103.8119655, 28.4619711 ], [ 103.7589532, 28.5242854 ], [ 103.8212211, 28.6735519 ], [ 103.8747129, 28.6949541 ], [ 103.8749596, 28.6950482 ], [ 103.8752171, 28.6950393 ], [ 103.8754853, 28.694964 ], [ 103.8776039, 28.6942499 ], [ 104.1098708, 28.6350724 ], [ 104.1653047, 28.6401141 ], [ 104.166634, 28.6402243 ], [ 104.1682015, 28.6403024 ], [ 104.2497289, 28.6465556 ], [ 104.2503038, 28.646615 ], [ 104.2511508, 28.6466298 ], [ 104.49697, 28.6698891 ], [ 104.487618, 28.6539609 ], [ 104.484444, 28.6502771 ], [ 104.48196, 28.6476539 ], [ 104.479186, 28.6449203 ], [ 104.475461, 28.6417451 ], [ 104.471756, 28.6386999 ], [ 104.470654, 28.6379383 ], [ 104.4168415, 28.600332 ], [ 104.3512191, 28.5598141 ], [ 104.3126535, 28.3350053 ], [ 104.4071209, 28.2835311 ], [ 104.4145828, 28.282317 ], [ 104.4583648, 28.142824 ], [ 104.4593706, 28.1306008 ], [ 104.4594066, 28.1302445 ], [ 104.5400511, 27.915974 ], [ 104.6990713, 27.8609014 ], [ 104.897434, 28.0179823 ], [ 104.8982696, 28.0185559 ], [ 104.8989518, 28.0190243 ], [ 104.8997247, 28.0194985 ], [ 104.903292, 28.0213189 ], [ 104.9036189, 28.0214352 ], [ 104.9330547, 28.0330639 ], [ 105.1226627, 28.1057388 ], [ 105.1511497, 28.1241861 ], [ 105.1515079, 28.1244033 ], [ 105.278167, 28.05906 ], [ 105.2782116, 28.0590347 ], [ 105.2806547, 28.05679 ], [ 105.2807057, 28.0567308 ], [ 105.2810597, 28.0561106 ], [ 105.2814651, 28.0546942 ], [ 105.2816884, 28.053647 ], [ 105.3084691, 27.8742145 ], [ 105.3145566, 27.7814066 ], [ 105.3071503, 27.5884419 ], [ 105.3070215, 27.584353 ], [ 105.3016748, 27.5615358 ], [ 105.2713233, 27.4769835 ], [ 105.2374041, 27.4310658 ], [ 105.1466731, 27.3778614 ], [ 104.8991171, 27.2961588 ], [ 104.8985368, 27.2964286 ], [ 104.8310188, 27.3189804 ], [ 104.5962946, 27.2424601 ], [ 104.5945644, 27.2436988 ], [ 104.5942962, 27.2438991 ], [ 104.5916998, 27.246093 ], [ 104.5915711, 27.2462075 ], [ 104.4554984, 27.3315198 ], [ 104.2828757, 27.3339265 ], [ 104.2765671, 27.3330497 ], [ 104.1555571, 27.2900007 ], [ 104.1552831, 27.2898822 ], [ 104.1552053, 27.2898789 ], [ 104.0493891, 27.3123779 ], [ 103.9103146, 27.2797415 ], [ 103.910087, 27.2796268 ], [ 103.9098291, 27.2795527 ], [ 103.9071984, 27.2790069 ], [ 103.7946439, 27.2233033 ], [ 103.7242277, 27.0728088 ], [ 103.7941375, 26.8980145 ], [ 103.7941781, 26.8979502 ], [ 103.7951374, 26.8963486 ], [ 103.7954968, 26.8955544 ], [ 103.8014493, 26.8753408 ], [ 103.8041349, 26.8661102 ], [ 103.8041469, 26.8658671 ], [ 103.7518307, 26.7700174 ], [ 103.7468721, 26.7459354 ], [ 103.9084311, 26.5351846 ], [ 103.9671181, 26.4796729 ], [ 104.0304485, 26.4476837 ], [ 104.2289696, 26.582416 ], [ 104.2290494, 26.5829211 ], [ 104.2291093, 26.5832472 ], [ 104.2291449, 26.5834403 ], [ 104.2292125, 26.5837722 ], [ 104.2348852, 26.6158975 ], [ 104.234907, 26.6161644 ], [ 104.2349372, 26.6164355 ], [ 104.2349977, 26.6168482 ], [ 104.2350478, 26.6171262 ], [ 104.2351054, 26.6174057 ], [ 104.2351703, 26.6176858 ], [ 104.2352805, 26.6181053 ], [ 104.2353623, 26.6183835 ], [ 104.2354966, 26.6187964 ], [ 104.2356442, 26.619202 ], [ 104.2357495, 26.6194668 ], [ 104.2359172, 26.619854 ], [ 104.2360351, 26.6201042 ], [ 104.2361575, 26.6203471 ], [ 104.2362842, 26.620582 ], [ 104.2364149, 26.6208081 ], [ 104.2365493, 26.6210245 ], [ 104.2366873, 26.6212306 ], [ 104.256849, 26.6551781 ], [ 104.2579698, 26.6571647 ], [ 104.2600807, 26.6589343 ], [ 104.2683559, 26.6632914 ], [ 104.4180214, 26.7531095 ], [ 104.4182111, 26.7532721 ], [ 104.4184463, 26.7533805 ], [ 104.4185753, 26.7534076 ], [ 104.4195994, 26.7535972 ], [ 104.4199948, 26.7536292 ], [ 104.4272162, 26.7444854 ], [ 104.4274514, 26.7440857 ], [ 104.6108937, 26.5771253 ], [ 104.6942351, 26.3961666 ], [ 104.6619335, 26.3373454 ], [ 104.6612763, 26.3365257 ], [ 104.6612307, 26.3364968 ], [ 104.5243417, 26.1859026 ], [ 104.5017128, 26.041537 ], [ 104.5001889, 26.0059168 ], [ 104.4956716, 25.8819382 ], [ 104.4720679, 25.8584029 ], [ 104.4338477, 25.6206692 ], [ 104.5542562, 25.5379426 ], [ 104.5612112, 25.5227583 ], [ 104.6511376, 25.3832264 ], [ 104.7731885, 25.2870754 ], [ 104.7735739, 25.2867828 ], [ 104.7758681, 25.2845219 ], [ 104.7835786, 25.2733831 ], [ 104.7863319, 25.2694572 ], [ 104.8064776, 25.2412616 ], [ 104.8084865, 25.2382424 ], [ 104.809057, 25.2373745 ], [ 104.850286, 25.1721258 ], [ 104.8523797, 25.1304832 ], [ 104.7376061, 25.0436065 ], [ 104.5968202, 24.8449078 ], [ 104.6043811, 24.6094267 ], [ 104.8012824, 24.4709087 ], [ 104.954421, 24.450034 ], [ 104.954717, 24.450048 ], [ 104.954886, 24.450004 ], [ 104.9590109, 24.4479273 ], [ 105.111688, 24.2976075 ], [ 105.1507332, 24.2069449 ], [ 105.239541, 23.958091 ], [ 105.26258, 23.943356 ], [ 105.324397, 23.920466 ], [ 105.5443856, 24.0000682 ], [ 105.5777033, 24.0738274 ], [ 105.5777149, 24.0738677 ], [ 105.5793317, 24.0773474 ], [ 105.6605226, 24.0993119 ], [ 105.6607157, 24.0990181 ], [ 105.663811, 24.0940673 ], [ 105.8598644, 23.9593326 ], [ 105.9451157, 23.9626685 ], [ 105.9454778, 23.9627298 ], [ 105.9577972, 23.964872 ], [ 105.9580386, 23.9648916 ], [ 105.9582746, 23.964872 ], [ 105.9648299, 23.9642641 ], [ 106.1971956, 23.9219132 ], [ 106.1974056, 23.9218932 ], [ 106.2021156, 23.9204732 ], [ 106.2053156, 23.9194832 ], [ 106.2056556, 23.9193732 ], [ 106.2058056, 23.9190632 ], [ 106.2065056, 23.9145933 ], [ 106.1713275, 23.6816561 ], [ 106.1490762, 23.5855763 ], [ 106.1490186, 23.5853394 ], [ 106.1393613, 23.5666257 ], [ 106.1204839, 23.5471106 ], [ 106.1187565, 23.5455074 ], [ 106.1157632, 23.5433927 ], [ 106.1148941, 23.5427829 ], [ 106.1145723, 23.5426649 ], [ 106.0094267, 23.5306945 ], [ 105.805899, 23.3763088 ], [ 105.7890058, 23.3671931 ], [ 105.6289771, 23.1497123 ], [ 105.6273249, 23.1496901 ], [ 105.6271103, 23.1497074 ], [ 105.6269601, 23.1497814 ], [ 105.4154158, 23.2063127 ], [ 105.1911872, 23.1952832 ], [ 105.0648815, 23.1639666 ], [ 105.0249055, 23.1455797 ], [ 104.9509547, 23.1095081 ], [ 104.8996965, 22.8874815 ], [ 104.8997905, 22.8872291 ], [ 104.8998108, 22.8870099 ], [ 104.8996643, 22.8843496 ], [ 104.7642014, 22.8224731 ], [ 104.5219959, 22.7098514 ], [ 104.5155621, 22.702999 ], [ 104.5143456, 22.7024285 ], [ 104.5142806, 22.7024093 ], [ 104.5130695, 22.7021161 ], [ 104.5130132, 22.7021031 ], [ 104.4629429, 22.6937659 ], [ 104.4005026, 22.6825335 ], [ 104.4004261, 22.6825311 ], [ 104.3908949, 22.6822384 ], [ 104.3908104, 22.6822434 ], [ 104.3795319, 22.6833309 ], [ 104.3794019, 22.6833475 ], [ 104.3789628, 22.6835764 ], [ 104.3789221, 22.6835995 ], [ 104.2817106, 22.7533618 ], [ 104.0995829, 22.6411946 ], [ 104.0986213, 22.6393602 ], [ 104.0984014, 22.6390037 ], [ 104.0612986, 22.5482342 ], [ 104.0325276, 22.514035 ], [ 103.9795201, 22.4883999 ], [ 103.9627671, 22.4958072 ], [ 103.9258094, 22.5203646 ], [ 103.8475529, 22.5960167 ], [ 103.8474109, 22.5961227 ], [ 103.8473295, 22.5961899 ], [ 103.8472397, 22.5962712 ], [ 103.8471601, 22.5963508 ], [ 103.8470877, 22.5964301 ], [ 103.8470029, 22.5965315 ], [ 103.8469649, 22.596577 ], [ 103.8464552, 22.5972114 ], [ 103.8461566, 22.5975979 ], [ 103.845918, 22.5979219 ], [ 103.8458054, 22.5980821 ], [ 103.8457006, 22.5982378 ], [ 103.816727, 22.635264 ], [ 103.5607845, 22.6867781 ], [ 103.5595234, 22.6863663 ], [ 103.5549475, 22.6882274 ], [ 103.5524442, 22.6906424 ], [ 103.537029, 22.7069449 ], [ 103.5367092, 22.7072707 ], [ 103.5176739, 22.7250912 ], [ 103.2706948, 22.6227975 ], [ 103.2826786, 22.5458202 ], [ 103.2824895, 22.5456752 ], [ 103.199349, 22.4705213 ], [ 103.0782678, 22.5767031 ], [ 103.0781834, 22.5767731 ], [ 103.0781423, 22.576855 ], [ 102.9645, 22.684601 ], [ 102.964363, 22.684658 ], [ 102.96254, 22.685745 ], [ 102.900146, 22.709688 ], [ 102.691104, 22.5776375 ], [ 102.6910852, 22.5775916 ], [ 102.6908867, 22.5771533 ], [ 102.6908586, 22.5771112 ], [ 102.6689355, 22.5438928 ], [ 102.668832, 22.543822 ], [ 102.6668439, 22.5425098 ], [ 102.6666825, 22.5424807 ], [ 102.6658258, 22.5424357 ], [ 102.4711682, 22.5618368 ], [ 102.3438048, 22.3953421 ], [ 102.3419249, 22.3535714 ], [ 102.2992346, 22.3616851 ], [ 102.299138, 22.3617074 ], [ 102.2859871, 22.3649357 ], [ 102.272281, 22.3677771 ], [ 102.272145, 22.3678038 ], [ 102.2683684, 22.36859 ], [ 102.2541587, 22.3735042 ], [ 102.2164064, 22.3983279 ], [ 102.2158501, 22.3986528 ], [ 102.1862737, 22.4146854 ], [ 102.1862321, 22.4147067 ], [ 102.1750065, 22.4214046 ], [ 102.0227054, 22.4660051 ], [ 101.8995121, 22.4382078 ], [ 101.7767642, 22.3193002 ], [ 101.5216664, 22.2305592 ], [ 101.597902, 22.0403174 ], [ 101.597989, 22.0402579 ], [ 101.5980641, 22.0401879 ], [ 101.5996746, 22.0385354 ], [ 101.600345, 22.0340333 ], [ 101.5998972, 22.0316104 ], [ 101.6982327, 21.8242979 ], [ 101.9008772, 21.8330741 ], [ 101.9010434, 21.8331818 ], [ 101.9012542, 21.833237 ], [ 101.984671, 21.5998855 ], [ 102.0060365, 21.3432471 ], [ 102.0061291, 21.3425863 ], [ 102.0062327, 21.3359565 ], [ 102.0061759, 21.3356022 ], [ 101.8733594, 21.1106466 ], [ 101.8671642, 21.1028633 ], [ 101.8670422, 21.102777 ], [ 101.819828, 21.0745244 ], [ 101.6416358, 21.061798 ], [ 101.4047808, 21.0344769 ], [ 101.4044322, 21.0344977 ], [ 101.4042632, 21.0345378 ], [ 101.2256321, 21.1168256 ], [ 101.2255463, 21.1168632 ], [ 101.179039, 21.1450769 ], [ 101.171715, 21.1501579 ], [ 101.1714939, 21.1503279 ], [ 101.1648688, 21.1555377 ], [ 101.1645624, 21.1558254 ], [ 101.1641644, 21.1563728 ], [ 101.1640282, 21.1565647 ], [ 101.151836, 21.1775586 ], [ 101.1514557, 21.1782054 ], [ 101.1512617, 21.1785756 ], [ 101.1505196, 21.1800756 ], [ 101.1480327, 21.1850149 ], [ 101.1486636, 21.1863581 ], [ 101.1488034, 21.1866514 ], [ 101.149165, 21.1872166 ], [ 101.1497959, 21.1880438 ], [ 101.1511622, 21.1898439 ], [ 101.2003278, 21.3324059 ], [ 101.2018833, 21.3472323 ], [ 101.2056715, 21.3580759 ], [ 101.2073172, 21.3630378 ], [ 101.2077377, 21.3642097 ], [ 101.2168532, 21.3877988 ], [ 101.2231453, 21.4000357 ], [ 101.229186, 21.4128016 ], [ 101.2310958, 21.4171165 ], [ 101.2332565, 21.4218157 ], [ 101.2336707, 21.4222302 ], [ 101.2886131, 21.5193175 ], [ 101.1355561, 21.6759987 ], [ 101.0730996, 21.6925196 ], [ 100.8878347, 21.6145932 ], [ 100.8877382, 21.6145009 ], [ 100.8464603, 21.5688707 ], [ 100.8463249, 21.5686724 ], [ 100.8461599, 21.5685053 ], [ 100.8419153, 21.5648884 ], [ 100.8069846, 21.5272966 ], [ 100.8030984, 21.5233141 ], [ 100.8015592, 21.5219286 ], [ 100.801355, 21.5217431 ], [ 100.7222861, 21.3432316 ], [ 100.7222673, 21.3428044 ], [ 100.7221547, 21.3422148 ], [ 100.7220072, 21.3417726 ], [ 100.7218267, 21.3413759 ], [ 100.5625096, 21.3400151 ], [ 100.5622427, 21.3399951 ], [ 100.3497682, 21.3198448 ], [ 100.1755713, 21.3971542 ], [ 100.1534325, 21.4091858 ], [ 100.1519922, 21.4103095 ], [ 99.9914539, 21.5406899 ], [ 99.8879999, 21.6026981 ], [ 99.799574, 21.8518548 ], [ 99.6389624, 21.9674536 ], [ 99.6354331, 21.9688686 ], [ 99.6259085, 21.9728553 ], [ 99.5983654, 21.9847938 ], [ 99.366864, 22.0170388 ], [ 99.366416, 22.0170686 ], [ 99.3658715, 22.0171631 ], [ 99.3652225, 22.0172924 ], [ 99.3605856, 22.0183582 ], [ 99.2323905, 22.0427598 ], [ 99.1128618, 22.156773 ], [ 99.1318488, 22.2932013 ], [ 99.1318649, 22.2933105 ], [ 99.151915, 22.4141686 ], [ 99.1522993, 22.4140675 ], [ 99.2070764, 22.4023358 ], [ 99.4111759, 22.577723 ], [ 99.3695453, 22.6899043 ], [ 99.3662299, 22.6977141 ], [ 99.3661265, 22.6981718 ], [ 99.3660153, 22.6986643 ], [ 99.3520912, 22.8633251 ], [ 99.1597653, 23.0298737 ], [ 98.9070556, 23.126614 ], [ 98.8795194, 23.0776301 ], [ 98.8793483, 23.0771779 ], [ 98.8646726, 23.0437899 ], [ 98.8634884, 23.0433333 ], [ 98.8633181, 23.043295 ], [ 98.863074, 23.043279 ], [ 98.8623807, 23.0432543 ], [ 98.862197, 23.0432864 ], [ 98.8614191, 23.0436616 ], [ 98.8612716, 23.0437628 ], [ 98.775579, 23.1351311 ], [ 98.7747735, 23.1359712 ], [ 98.7745786, 23.1361744 ], [ 98.7742996, 23.136574 ], [ 98.7740663, 23.1371068 ], [ 98.7734708, 23.1385274 ], [ 98.7712795, 23.148526 ], [ 98.756066, 23.2089777 ], [ 98.6217288, 23.4090259 ], [ 98.706665, 23.5331817 ], [ 98.662516, 23.6825385 ], [ 98.624053, 23.734464 ], [ 98.623994, 23.7345328 ], [ 98.6239833, 23.7345966 ], [ 98.5184945, 23.9254951 ], [ 98.2846196, 23.957764 ], [ 98.2762786, 23.9555197 ], [ 98.2755123, 23.9556109 ], [ 98.2745084, 23.9559569 ], [ 98.2698391, 23.9584731 ], [ 98.2676739, 23.9595948 ], [ 98.1324175, 23.9818147 ], [ 97.9901663, 23.895025 ], [ 97.7742894, 23.8298259 ], [ 97.7220392, 23.7595283 ], [ 97.7196282, 23.7583265 ], [ 97.5703549, 23.7324251 ], [ 97.539864, 23.7499057 ], [ 97.4256474, 23.9336119 ], [ 97.4207591, 23.9429914 ], [ 97.4198572, 23.9467211 ], [ 97.483335, 24.0520902 ], [ 97.4774683, 24.2588692 ], [ 97.4135935, 24.3305739 ], [ 97.4135398, 24.3306641 ], [ 97.4134111, 24.3309405 ], [ 97.4132502, 24.3313633 ], [ 97.41321, 24.3315002 ], [ 97.4131912, 24.3316224 ], [ 97.4132261, 24.3317153 ], [ 97.4149936, 24.3362854 ], [ 97.4150312, 24.3363612 ], [ 97.4162811, 24.3386364 ], [ 97.4212888, 24.343436 ], [ 97.4213451, 24.3434873 ], [ 97.4258834, 24.3467203 ], [ 97.4384845, 24.3550272 ], [ 97.4499642, 24.3633896 ], [ 97.4793506, 24.3877283 ], [ 97.5140882, 24.4243503 ], [ 97.5215186, 24.4331943 ], [ 97.566163, 24.6116823 ], [ 97.5001165, 24.7273435 ], [ 97.566089, 24.9655388 ], [ 97.5735925, 24.9727633 ], [ 97.5747513, 24.9737943 ], [ 97.5752534, 24.9740612 ], [ 97.6408605, 24.9886163 ], [ 97.6409165, 24.9886336 ], [ 97.6829805, 24.9929618 ], [ 97.6830161, 24.9929679 ], [ 97.6870514, 24.9935045 ], [ 97.6871064, 24.9935082 ], [ 97.7443829, 25.0022379 ], [ 97.9376221, 25.1077768 ], [ 98.012504, 25.2523229 ], [ 97.9130567, 25.423935 ], [ 97.9173187, 25.4269598 ], [ 97.9173708, 25.4269885 ], [ 97.9326464, 25.4326385 ], [ 97.9327596, 25.4326737 ], [ 97.941966, 25.434863 ], [ 97.9420861, 25.4348685 ], [ 98.0150766, 25.427286 ], [ 98.2430568, 25.4989092 ], [ 98.3796218, 25.5971748 ], [ 98.5285447, 25.8229748 ], [ 98.3764341, 25.9630149 ], [ 98.3764449, 25.9631186 ], [ 98.3913794, 25.9833784 ], [ 98.3914599, 25.9834869 ], [ 98.4228769, 26.0213973 ], [ 98.5636523, 26.2517124 ], [ 98.5726243, 26.2692477 ], [ 98.572678, 26.2693078 ], [ 98.5727745, 26.2693583 ], [ 98.5729033, 26.2694208 ], [ 98.6044292, 26.1774453 ], [ 98.8598406, 26.1992857 ], [ 98.867375, 26.243449 ], [ 98.867147, 26.2693992 ], [ 98.8599623, 26.30341 ], [ 98.8599456, 26.3034971 ], [ 98.8599434, 26.3064568 ], [ 98.8599208, 26.3086868 ], [ 98.8599234, 26.3091215 ], [ 98.8602771, 26.3151374 ], [ 98.8602913, 26.315354 ], [ 98.8603192, 26.315529 ], [ 98.8603798, 26.3157814 ], [ 98.8604277, 26.3159227 ], [ 98.8604944, 26.3160797 ], [ 98.8606198, 26.3163337 ], [ 98.861727, 26.3185384 ], [ 98.8617504, 26.3185835 ], [ 98.861875, 26.3188195 ], [ 98.8642921, 26.3229637 ], [ 98.8643279, 26.3230257 ], [ 98.8914826, 26.4327316 ], [ 98.8913428, 26.4353035 ], [ 98.8913442, 26.435694 ], [ 98.8914393, 26.4367986 ], [ 98.8936857, 26.4675531 ], [ 98.8937481, 26.4693076 ], [ 98.8937577, 26.4694247 ], [ 98.8945484, 26.5334501 ], [ 98.8961926, 26.5448533 ], [ 98.8906673, 26.6600775 ], [ 98.8904232, 26.6682463 ], [ 98.8899944, 26.7280227 ], [ 98.8799711, 26.7990167 ], [ 98.879789, 26.8000866 ], [ 98.8662927, 26.8682893 ], [ 98.8662245, 26.868675 ], [ 98.863741, 26.9013144 ], [ 98.8622486, 26.9452232 ], [ 98.8622594, 26.9455031 ], [ 98.8633581, 26.9744261 ], [ 98.865167, 27.0275106 ], [ 98.8652064, 27.0278323 ], [ 98.8655069, 27.0302381 ], [ 98.8655858, 27.0307192 ], [ 98.8729655, 27.1049309 ], [ 98.8729888, 27.1052766 ], [ 98.8747761, 27.1658875 ], [ 98.8505065, 27.3361901 ], [ 98.8321602, 27.3916688 ], [ 98.8318866, 27.3924595 ], [ 98.8270479, 27.4061568 ], [ 98.8225365, 27.4183668 ], [ 98.817966, 27.4304088 ], [ 98.8175303, 27.4315106 ], [ 98.8174134, 27.4318752 ], [ 98.817333, 27.4322133 ], [ 98.81648, 27.4389645 ], [ 98.7747755, 27.5610505 ], [ 98.7370659, 27.6236808 ], [ 98.7310139, 27.631074 ], [ 98.729973, 27.6326754 ], [ 98.7298638, 27.632847 ], [ 98.7288013, 27.6351554 ], [ 98.5798183, 27.7567202 ], [ 98.3539076, 27.6749761 ], [ 98.2990083, 27.6688997 ], [ 98.2965958, 27.6685407 ], [ 98.2962878, 27.6685154 ], [ 98.2960991, 27.6685525 ], [ 98.2943147, 27.668908 ], [ 98.2927538, 27.6694314 ], [ 98.2910718, 27.6702299 ], [ 98.2902307, 27.6706594 ], [ 98.2749753, 27.6866229 ], [ 98.3180074, 27.8370553 ], [ 98.3112766, 28.0232673 ], [ 98.3111767, 28.0238955 ], [ 98.3206769, 28.1114745 ], [ 98.4720498, 28.2022082 ], [ 98.4880987, 28.1832904 ], [ 98.5801327, 28.0832189 ], [ 98.781646, 28.1389833 ], [ 98.8082168, 28.1873796 ], [ 98.8088832, 28.1883081 ], [ 98.8117377, 28.4557318 ], [ 98.8113407, 28.4563308 ], [ 98.8109715, 28.4570817 ], [ 98.794911, 28.5025363 ], [ 98.7948746, 28.5026149 ], [ 98.7948555, 28.5026741 ], [ 98.7727515, 28.5609271 ], [ 98.7397887, 28.6117024 ], [ 98.7396897, 28.611825 ], [ 98.7395953, 28.6119651 ], [ 98.7395291, 28.6120827 ], [ 98.7205572, 28.6433724 ], [ 98.679581, 28.6982329 ], [ 98.6785446, 28.6993307 ], [ 98.6781262, 28.699933 ], [ 98.6774073, 28.7011375 ], [ 98.6773, 28.7018622 ], [ 98.6534718, 28.8112594 ], [ 98.6533967, 28.8115509 ], [ 98.6529568, 28.8144744 ], [ 98.6452424, 28.8629976 ], [ 98.6050216, 28.9985286 ], [ 98.6050051, 28.9987816 ] ] ] } }
]
}
