{
"type": "FeatureCollection",
"name": "isochrone_2h",
"crs": { "type": "name", "properties": { "name": "urn:ogc:def:crs:OGC:1.3:CRS84" } },
"features": [
{ "type": "Feature", "properties": { "threshold_h": 2, "label": "2h" }, "geometry": { "type": "Polygon", "coordinates": [ [ [ 101.4578478, 25.4433115 ], [ 101.4569887, 25.4582929 ], [ 101.463662, 25.4528559 ], [ 101.4639029, 25.4526124 ], [ 101.4641232, 25.4523746 ], [ 101.4643348, 25.4521305 ], [ 101.4645376, 25.4518803 ], [ 101.4647313, 25.4516243 ], [ 101.4649156, 25.4513628 ], [ 101.4650905, 25.451096 ], [ 101.4652557, 25.4508243 ], [ 101.465411, 25.4505478 ], [ 101.4655564, 25.4502669 ], [ 101.4656914, 25.4499823 ], [ 101.4658016, 25.4497289 ], [ 101.4659036, 25.4494731 ], [ 101.4659976, 25.4492148 ], [ 101.4660833, 25.4489542 ], [ 101.4662552, 25.4483447 ], [ 101.4663161, 25.4481087 ], [ 101.4663687, 25.4478711 ], [ 101.466413, 25.4476322 ], [ 101.4664489, 25.4473921 ], [ 101.4664673, 25.4472393 ], [ 101.4664823, 25.4470863 ], [ 101.4665081, 25.4467799 ], [ 101.4665263, 25.446473 ], [ 101.4665367, 25.4461659 ], [ 101.4665396, 25.4458586 ], [ 101.4665347, 25.4455513 ], [ 101.4665234, 25.4452668 ], [ 101.4665055, 25.4449826 ], [ 101.4664811, 25.4446988 ], [ 101.4825183, 25.3912114 ], [ 101.5492242, 25.386422 ], [ 101.5894399, 25.3529471 ], [ 101.6437375, 25.3504884 ], [ 101.6455936, 25.3501345 ], [ 101.6460818, 25.349926 ], [ 101.6568267, 25.3456404 ], [ 101.6612953, 25.3432649 ], [ 101.6626471, 25.3421159 ], [ 101.6705328, 25.3350615 ], [ 101.6736495, 25.3326567 ], [ 101.7272565, 25.3300817 ], [ 101.7402595, 25.3595414 ], [ 101.74045, 25.3606418 ], [ 101.7405251, 25.3608236 ], [ 101.7443097, 25.384312 ], [ 101.7443258, 25.3844138 ], [ 101.7539602, 25.4064778 ], [ 101.7540568, 25.4066474 ], [ 101.7766843, 25.4683884 ], [ 101.7767888, 25.4693781 ], [ 101.7769027, 25.4703515 ], [ 101.7770264, 25.4713075 ], [ 101.7771605, 25.4722452 ], [ 101.7773054, 25.4731636 ], [ 101.7774617, 25.4740618 ], [ 101.7776298, 25.4749389 ], [ 101.7778102, 25.4757938 ], [ 101.7780033, 25.4766255 ], [ 101.7782098, 25.4774332 ], [ 101.7784301, 25.4782159 ], [ 101.7786646, 25.4789726 ], [ 101.7791768, 25.4804907 ], [ 101.7795552, 25.4813658 ], [ 101.7797419, 25.4817894 ], [ 101.7798763, 25.4820754 ], [ 101.7800947, 25.4825091 ], [ 101.7811739, 25.4846896 ], [ 101.7813912, 25.4849705 ], [ 101.7824963, 25.4859172 ], [ 101.7836723, 25.4869147 ], [ 101.784046, 25.4872268 ], [ 101.7844396, 25.4875392 ], [ 101.7848539, 25.4878517 ], [ 101.7850684, 25.4880063 ], [ 101.785287, 25.4881576 ], [ 101.7855095, 25.4883055 ], [ 101.7857357, 25.4884502 ], [ 101.7859654, 25.4885918 ], [ 101.7861984, 25.4887304 ], [ 101.8347229, 25.5336733 ], [ 101.8349675, 25.5340044 ], [ 101.8352241, 25.5343275 ], [ 101.835494, 25.5346427 ], [ 101.8357784, 25.53495 ], [ 101.8360784, 25.5352495 ], [ 101.8363954, 25.5355411 ], [ 101.8367305, 25.5358251 ], [ 101.8370848, 25.5361014 ], [ 101.8374598, 25.5363701 ], [ 101.8378564, 25.5366313 ], [ 101.8382761, 25.5368849 ], [ 101.8387199, 25.5371312 ], [ 101.8391891, 25.5373701 ], [ 101.8396849, 25.5376016 ], [ 101.8402085, 25.5378259 ], [ 101.8407612, 25.538043 ], [ 101.8413441, 25.538253 ], [ 101.8419585, 25.5384559 ], [ 101.8426056, 25.5386517 ], [ 101.8432865, 25.5388406 ], [ 101.8440026, 25.5390226 ], [ 101.8447549, 25.5391977 ], [ 101.8455449, 25.5393661 ], [ 101.8463735, 25.5395277 ], [ 101.8629999, 25.5454076 ], [ 101.8631745, 25.5455015 ], [ 101.8633532, 25.5455927 ], [ 101.863536, 25.5456811 ], [ 101.8637232, 25.5457665 ], [ 101.8639147, 25.5458489 ], [ 101.8644729, 25.5460805 ], [ 101.8651527, 25.5463566 ], [ 101.8656227, 25.5465397 ], [ 101.8660654, 25.5467026 ], [ 101.8663487, 25.5468001 ], [ 101.8666246, 25.5468888 ], [ 101.8668951, 25.5469689 ], [ 101.8671619, 25.5470404 ], [ 101.8674272, 25.5471034 ], [ 101.8676926, 25.5471581 ], [ 101.8679602, 25.5472045 ], [ 101.9023615, 25.5870156 ], [ 101.8912624, 25.6147291 ], [ 101.874123, 25.6301468 ], [ 101.8750328, 25.6340229 ], [ 101.8506297, 25.6967856 ], [ 101.835778, 25.7133042 ], [ 101.8356435, 25.7134714 ], [ 101.8355731, 25.7136502 ], [ 101.8355795, 25.7138694 ], [ 101.8333979, 25.78138 ], [ 101.8448718, 25.7606394 ], [ 101.877465, 25.7261647 ], [ 101.8778902, 25.7054649 ], [ 101.8950754, 25.6588595 ], [ 101.8964243, 25.656958 ], [ 101.906058, 25.644352 ], [ 101.9178492, 25.6011362 ], [ 101.975239, 25.635742 ], [ 101.99585, 25.640369 ], [ 101.996006, 25.640408 ], [ 102.0383912, 25.6944142 ], [ 102.045837, 25.7016604 ], [ 102.1042325, 25.7110421 ], [ 102.1085915, 25.7092333 ], [ 102.1335168, 25.6781208 ], [ 102.1623319, 25.6337883 ], [ 102.2098473, 25.6225044 ], [ 102.2545838, 25.6538724 ], [ 102.2553241, 25.6547138 ], [ 102.2875307, 25.7110182 ], [ 102.2924727, 25.7393597 ], [ 102.2924794, 25.7394334 ], [ 102.2925036, 25.7394878 ], [ 102.314668, 25.7965635 ], [ 102.3180529, 25.7908448 ], [ 102.3184375, 25.7902312 ], [ 102.3186886, 25.7898305 ], [ 102.3187973, 25.7895624 ], [ 102.318816, 25.7893692 ], [ 102.3222211, 25.7696076 ], [ 102.3223042, 25.7693056 ], [ 102.3223525, 25.7690424 ], [ 102.3223338, 25.7684892 ], [ 102.3222855, 25.7682018 ], [ 102.3213977, 25.7650326 ], [ 102.3213655, 25.7649336 ], [ 102.3212743, 25.7647862 ], [ 102.3194692, 25.7620204 ], [ 102.3194115, 25.7619467 ], [ 102.3166434, 25.7584053 ], [ 102.3139626, 25.7551598 ], [ 102.3138902, 25.7550825 ], [ 102.304379, 25.7422964 ], [ 102.3043281, 25.7421998 ], [ 102.3020039, 25.7376213 ], [ 102.3019342, 25.7375138 ], [ 102.3018658, 25.7374353 ], [ 102.2934866, 25.7222237 ], [ 102.2934021, 25.7219554 ], [ 102.3016018, 25.6786572 ], [ 102.3549745, 25.685538 ], [ 102.3574022, 25.6892776 ], [ 102.3582746, 25.6897972 ], [ 102.3711184, 25.6961687 ], [ 102.3713309, 25.6961755 ], [ 102.3716874, 25.6959568 ], [ 102.3736675, 25.6942545 ], [ 102.3738116, 25.6940905 ], [ 102.3744678, 25.6914924 ], [ 102.3744893, 25.6912604 ], [ 102.3744571, 25.690864 ], [ 102.3743927, 25.6903516 ], [ 102.3740494, 25.6893654 ], [ 102.3736954, 25.6888917 ], [ 102.3489736, 25.6445991 ], [ 102.366744, 25.591769 ], [ 102.373878, 25.582434 ], [ 102.373961, 25.582276 ], [ 102.4178088, 25.5566517 ], [ 102.4597622, 25.5968238 ], [ 102.462835, 25.6020954 ], [ 102.4630631, 25.6024055 ], [ 102.4688824, 25.6108641 ], [ 102.4821591, 25.6494794 ], [ 102.486849, 25.6765225 ], [ 102.4819064, 25.6998938 ], [ 102.4668934, 25.7299244 ], [ 102.4528375, 25.7414489 ], [ 102.4526256, 25.7416724 ], [ 102.4496335, 25.7446421 ], [ 102.4466311, 25.7492642 ], [ 102.4385304, 25.7611107 ], [ 102.4381015, 25.7657325 ], [ 102.4381118, 25.7658721 ], [ 102.4385718, 25.7669659 ], [ 102.5069439, 25.7735207 ], [ 102.4914036, 25.8178084 ], [ 102.4908242, 25.8187163 ], [ 102.4831907, 25.8301892 ], [ 102.4831376, 25.8304014 ], [ 102.4831798, 25.8327356 ], [ 102.4832162, 25.8330775 ], [ 102.4875798, 25.8489839 ], [ 102.4899557, 25.8548115 ], [ 102.4900416, 25.8550239 ], [ 102.4905775, 25.8557386 ], [ 102.4920473, 25.8570662 ], [ 102.4921981, 25.857119 ], [ 102.4958668, 25.858442 ], [ 102.534595, 25.8286293 ], [ 102.5703978, 25.8672357 ], [ 102.5651271, 25.9010918 ], [ 102.5650596, 25.9012074 ], [ 102.5649876, 25.9013678 ], [ 102.5649792, 25.9015447 ], [ 102.565712, 25.9065069 ], [ 102.554411, 25.9491127 ], [ 102.5232366, 25.967763 ], [ 102.516674, 25.9712791 ], [ 102.511779, 25.9983715 ], [ 102.5121623, 25.9981815 ], [ 102.5129548, 25.9976647 ], [ 102.5190496, 25.9933695 ], [ 102.5261213, 25.9879533 ], [ 102.5482875, 25.9668573 ], [ 102.5486282, 25.9661431 ], [ 102.568059, 25.9367811 ], [ 102.6214197, 25.9114834 ], [ 102.6212855, 25.9083759 ], [ 102.6212147, 25.9071848 ], [ 102.6209304, 25.90497 ], [ 102.620497, 25.8965004 ], [ 102.6203296, 25.8893491 ], [ 102.6200089, 25.8755196 ], [ 102.620237, 25.8730562 ], [ 102.6199119, 25.8703368 ], [ 102.6166294, 25.8686051 ], [ 102.615846, 25.8681597 ], [ 102.615601, 25.8680495 ], [ 102.5818348, 25.8341569 ], [ 102.5723505, 25.8126014 ], [ 102.5718141, 25.8109208 ], [ 102.5713903, 25.8101684 ], [ 102.5685525, 25.8052995 ], [ 102.5681877, 25.8047006 ], [ 102.5444341, 25.7492037 ], [ 102.5444703, 25.7486361 ], [ 102.5462568, 25.7367948 ], [ 102.5463204, 25.7365434 ], [ 102.5462103, 25.7362085 ], [ 102.5444993, 25.7307018 ], [ 102.5442858, 25.7301364 ], [ 102.5441309, 25.7299668 ], [ 102.5436237, 25.7297336 ], [ 102.5428302, 25.7294664 ], [ 102.514404, 25.702378 ], [ 102.5140768, 25.7015471 ], [ 102.5112729, 25.6728407 ], [ 102.512803, 25.6661994 ], [ 102.5128747, 25.6658645 ], [ 102.5127856, 25.6655842 ], [ 102.5121333, 25.6641153 ], [ 102.5066134, 25.6532147 ], [ 102.5305031, 25.5904111 ], [ 102.5714207, 25.6171458 ], [ 102.5715689, 25.6174354 ], [ 102.5720376, 25.6182429 ], [ 102.5722638, 25.6186414 ], [ 102.5787407, 25.6378709 ], [ 102.5787923, 25.6382257 ], [ 102.5788601, 25.638406 ], [ 102.5789536, 25.6385281 ], [ 102.5801729, 25.6401885 ], [ 102.5837413, 25.6462649 ], [ 102.5838526, 25.6464697 ], [ 102.5840309, 25.6467049 ], [ 102.5842134, 25.6468921 ], [ 102.584365, 25.6470279 ], [ 102.5846901, 25.6472375 ], [ 102.5853756, 25.6476445 ], [ 102.5867462, 25.6482698 ], [ 102.5869036, 25.6483377 ], [ 102.5876039, 25.6485183 ], [ 102.599064, 25.652039 ], [ 102.5991803, 25.6520863 ], [ 102.6413065, 25.7000842 ], [ 102.6416522, 25.7040694 ], [ 102.6417819, 25.7043996 ], [ 102.6427499, 25.7069752 ], [ 102.6815567, 25.7523138 ], [ 102.7202086, 25.8032719 ], [ 102.7410172, 25.8491086 ], [ 102.7397954, 25.8763794 ], [ 102.7508945, 25.8759439 ], [ 102.7841754, 25.8376291 ], [ 102.7891048, 25.8358056 ], [ 102.7936137, 25.8346814 ], [ 102.7982465, 25.8330705 ], [ 102.7993403, 25.8327523 ], [ 102.8017543, 25.8316418 ], [ 102.8022269, 25.831342 ], [ 102.8027092, 25.8309465 ], [ 102.8091041, 25.8214674 ], [ 102.8091577, 25.8212936 ], [ 102.8095005, 25.8184598 ], [ 102.8095005, 25.8183825 ], [ 102.8531448, 25.7672108 ], [ 102.8642067, 25.769547 ], [ 102.8757188, 25.774117 ], [ 102.9025401, 25.8152284 ], [ 102.8900814, 25.8455083 ], [ 102.8898373, 25.8458263 ], [ 102.8897062, 25.8461903 ], [ 102.8896624, 25.8466198 ], [ 102.886178, 25.8602047 ], [ 102.8856898, 25.8612997 ], [ 102.8849356, 25.8629947 ], [ 102.8839444, 25.8651707 ], [ 102.8838171, 25.8654502 ], [ 102.8838035, 25.86548 ], [ 102.8836583, 25.8657975 ], [ 102.8833944, 25.8663747 ], [ 102.8491764, 25.8994662 ], [ 102.8486982, 25.8995666 ], [ 102.8343599, 25.907071 ], [ 102.8341883, 25.9071868 ], [ 102.8271914, 25.928727 ], [ 102.8271072, 25.9289084 ], [ 102.8271271, 25.9290936 ], [ 102.8365327, 25.9692255 ], [ 102.83661, 25.9694617 ], [ 102.8613162, 26.0188692 ], [ 102.8670077, 26.0257809 ], [ 102.8671061, 26.0258529 ], [ 102.86727, 26.0258889 ], [ 102.8697295, 26.0259074 ], [ 102.869843, 26.0259087 ], [ 102.8700133, 26.025844 ], [ 102.870626, 26.025349 ], [ 102.8706542, 26.0252138 ], [ 102.870598, 26.025072 ], [ 102.8611769, 25.9974586 ], [ 102.8608368, 25.9954695 ], [ 102.8596879, 25.9889039 ], [ 102.8596029, 25.9885241 ], [ 102.8594509, 25.9882323 ], [ 102.8540228, 25.9748765 ], [ 102.8539592, 25.974757 ], [ 102.8472155, 25.9489663 ], [ 102.8723824, 25.9027091 ], [ 102.8728974, 25.902381 ], [ 102.873466, 25.9019177 ], [ 102.8738201, 25.9013676 ], [ 102.8764147, 25.8968654 ], [ 102.8764647, 25.8967786 ], [ 102.8768241, 25.8959243 ], [ 102.8769207, 25.8954514 ], [ 102.8800362, 25.8859645 ], [ 102.8803568, 25.8851877 ], [ 102.8816101, 25.8817459 ], [ 102.8821165, 25.8805134 ], [ 102.8845931, 25.8754717 ], [ 102.884717, 25.8749669 ], [ 102.8848809, 25.8739212 ], [ 102.8849611, 25.8733672 ], [ 102.8850303, 25.8728263 ], [ 102.8907795, 25.855536 ], [ 102.8909763, 25.855172 ], [ 102.8910637, 25.854854 ], [ 102.8983417, 25.8405382 ], [ 102.898655, 25.8400889 ], [ 102.9024368, 25.835203 ], [ 102.905581, 25.8318877 ], [ 102.9059672, 25.8314778 ], [ 102.9527521, 25.8228808 ], [ 102.9698012, 25.8569351 ], [ 102.9698403, 25.8577455 ], [ 102.9698851, 25.8581481 ], [ 102.951344, 25.9017255 ], [ 102.9485035, 25.9034524 ], [ 102.9861547, 25.9213965 ], [ 102.9863281, 25.9215022 ], [ 102.9905966, 25.9240833 ], [ 103.0374131, 25.9737286 ], [ 103.0383035, 25.9734007 ], [ 103.0388394, 25.9730264 ], [ 103.0395266, 25.9724168 ], [ 103.0426809, 25.9696486 ], [ 103.0432281, 25.9690024 ], [ 103.0512499, 25.9567499 ], [ 103.1170599, 25.9600999 ], [ 103.1148299, 26.02465 ], [ 103.1094046, 26.036558 ], [ 103.1063945, 26.0409183 ], [ 103.1060975, 26.0413381 ], [ 103.1060896, 26.0414412 ], [ 103.1061529, 26.0415195 ], [ 103.1062875, 26.0415764 ], [ 103.1286648, 26.0511853 ], [ 103.128874, 26.0513058 ], [ 103.150329, 26.1165784 ], [ 103.1285247, 26.1450286 ], [ 103.1275731, 26.1456918 ], [ 103.126908, 26.1464526 ], [ 103.0961859, 26.1684814 ], [ 103.0960518, 26.1685392 ], [ 103.0874848, 26.1738351 ], [ 103.08727, 26.1899573 ], [ 103.08727, 26.1900969 ], [ 103.0933846, 26.2527045 ], [ 103.0933846, 26.2529165 ], [ 103.0933846, 26.2529635 ], [ 103.0975322, 26.3198116 ], [ 103.0970835, 26.3216022 ], [ 103.1060874, 26.304959 ], [ 103.1064422, 26.3041087 ], [ 103.1068042, 26.3029426 ], [ 103.1069555, 26.3019256 ], [ 103.107664, 26.2925064 ], [ 103.1075555, 26.2909711 ], [ 103.107258, 26.2896943 ], [ 103.1322029, 26.2267494 ], [ 103.13694, 26.2240171 ], [ 103.137073, 26.2237063 ], [ 103.1379378, 26.2217265 ], [ 103.1409461, 26.2144855 ], [ 103.153891, 26.1661607 ], [ 103.1735408, 26.1423787 ], [ 103.2254523, 26.1245064 ], [ 103.225911, 26.0806546 ], [ 103.2259834, 26.0795031 ], [ 103.2259887, 26.079373 ], [ 103.2259244, 26.0792236 ], [ 103.2200573, 26.0231312 ], [ 103.2289177, 26.0057681 ], [ 103.2294971, 26.0046326 ], [ 103.2370936, 25.9925683 ], [ 103.2373866, 25.9921985 ], [ 103.237671, 25.9918233 ], [ 103.2379467, 25.9914429 ], [ 103.2382135, 25.9910575 ], [ 103.2384715, 25.9906672 ], [ 103.2387203, 25.9902722 ], [ 103.2389601, 25.9898726 ], [ 103.2391906, 25.9894686 ], [ 103.2393892, 25.989103 ], [ 103.2395802, 25.9887341 ], [ 103.2397636, 25.9883621 ], [ 103.2399393, 25.9879871 ], [ 103.2401073, 25.9876092 ], [ 103.2402674, 25.9872286 ], [ 103.2404196, 25.9868454 ], [ 103.2405638, 25.9864597 ], [ 103.240686, 25.9861186 ], [ 103.2407984, 25.9857748 ], [ 103.2409012, 25.9854286 ], [ 103.2409943, 25.9850801 ], [ 103.2410775, 25.9847297 ], [ 103.2411508, 25.9843774 ], [ 103.2412143, 25.9840237 ], [ 103.2412678, 25.9836686 ], [ 103.2413112, 25.9833123 ], [ 103.2413447, 25.9829552 ], [ 103.2413681, 25.9825975 ], [ 103.2413815, 25.9822394 ], [ 103.2413848, 25.981881 ], [ 103.241378, 25.9815227 ], [ 103.2413612, 25.9811647 ], [ 103.2413343, 25.9808071 ], [ 103.2412974, 25.9804503 ], [ 103.2453516, 25.9561298 ], [ 103.24863, 25.94573 ], [ 103.24868, 25.94551 ], [ 103.25438, 25.93035 ], [ 103.3032541, 25.9126525 ], [ 103.3306437, 25.9479362 ], [ 103.3308963, 25.9571445 ], [ 103.3297288, 25.9648924 ], [ 103.3297213, 25.9650028 ], [ 103.3297351, 25.9651049 ], [ 103.3297573, 25.9651896 ], [ 103.329796, 25.9652926 ], [ 103.3307915, 25.9679223 ], [ 103.3308133, 25.9679795 ], [ 103.3308309, 25.9680054 ], [ 103.3308788, 25.968055 ], [ 103.330936, 25.9681019 ], [ 103.3321077, 25.9689736 ], [ 103.3321672, 25.9690119 ], [ 103.3322304, 25.9690407 ], [ 103.3323061, 25.9690592 ], [ 103.3650716, 25.9899791 ], [ 103.3519321, 26.0573276 ], [ 103.3516524, 26.0576356 ], [ 103.3515892, 26.0577571 ], [ 103.3515802, 26.0578787 ], [ 103.352307, 26.0699002 ], [ 103.3584112, 26.0968419 ], [ 103.3614906, 26.1049846 ], [ 103.3686763, 26.1492879 ], [ 103.3686475, 26.1494958 ], [ 103.3686736, 26.1497569 ], [ 103.368763, 26.149994 ], [ 103.3689343, 26.1502393 ], [ 103.3852798, 26.1921231 ], [ 103.3810734, 26.235447 ], [ 103.3892553, 26.234424 ], [ 103.3905866, 26.2340703 ], [ 103.410106, 26.2280356 ], [ 103.4318832, 26.1913219 ], [ 103.4482049, 26.1373313 ], [ 103.4486045, 26.1365229 ], [ 103.4734824, 26.099649 ], [ 103.4739831, 26.0990137 ], [ 103.4744297, 26.0983468 ], [ 103.4747985, 26.0976871 ], [ 103.4750083, 26.0972443 ], [ 103.4752856, 26.0965554 ], [ 103.4754406, 26.0960823 ], [ 103.4756244, 26.0953704 ], [ 103.4757104, 26.0948775 ], [ 103.475774, 26.0943877 ], [ 103.476905, 26.0867299 ], [ 103.476976, 26.086233 ], [ 103.4770266, 26.0854904 ], [ 103.4770174, 26.0849872 ], [ 103.4769386, 26.084208 ], [ 103.4768349, 26.0836695 ], [ 103.4804218, 26.0414714 ], [ 103.4807542, 26.0398444 ], [ 103.4807641, 26.0390881 ], [ 103.4807373, 26.0386332 ], [ 103.48051, 26.0375134 ], [ 103.4802128, 26.0366254 ], [ 103.4798208, 26.0358853 ], [ 103.4733039, 26.0111178 ], [ 103.503225, 25.9686375 ], [ 103.5061507, 25.9673915 ], [ 103.533084, 25.9642547 ], [ 103.5767839, 25.9926408 ], [ 103.5876932, 25.9956746 ], [ 103.6038809, 26.0051192 ], [ 103.6178827, 26.0602508 ], [ 103.6189596, 26.0595703 ], [ 103.6193928, 26.0592176 ], [ 103.6208632, 26.0578875 ], [ 103.6225149, 26.0562008 ], [ 103.6254447, 26.052008 ], [ 103.6256799, 26.0516803 ], [ 103.6260501, 26.0503347 ], [ 103.6342131, 26.031186 ], [ 103.6898993, 25.9917515 ], [ 103.6954654, 25.9955629 ], [ 103.7058506, 26.0071735 ], [ 103.7060722, 26.0074154 ], [ 103.7093888, 26.0107234 ], [ 103.7097609, 26.0110791 ], [ 103.7102437, 26.0113209 ], [ 103.7115893, 26.01189 ], [ 103.7140115, 26.0127792 ], [ 103.7366314, 25.9920017 ], [ 103.776963, 25.9812159 ], [ 103.7939626, 25.9163188 ], [ 103.7945737, 25.9129679 ], [ 103.7837756, 25.8899017 ], [ 103.7833639, 25.8888148 ], [ 103.7772646, 25.8671583 ], [ 103.7769212, 25.8653482 ], [ 103.7762185, 25.8630891 ], [ 103.7729623, 25.8466963 ], [ 103.772796, 25.8455726 ], [ 103.7724044, 25.8439505 ], [ 103.7714858, 25.841543 ], [ 103.770944, 25.8403167 ], [ 103.770075, 25.8390083 ], [ 103.7636216, 25.8270099 ], [ 103.7629779, 25.8257255 ], [ 103.755021, 25.7977607 ], [ 103.7549171, 25.7966288 ], [ 103.7547739, 25.7958494 ], [ 103.7517273, 25.7854442 ], [ 103.7507939, 25.7831063 ], [ 103.7582405, 25.7403817 ], [ 103.7583827, 25.7401967 ], [ 103.761076, 25.7368813 ], [ 103.762087, 25.7357073 ], [ 103.7622766, 25.73538 ], [ 103.7643539, 25.7322138 ], [ 103.7645592, 25.7319008 ], [ 103.7653728, 25.7302999 ], [ 103.766676, 25.7280158 ], [ 103.7669603, 25.7274324 ], [ 103.7671973, 25.7269414 ], [ 103.7698353, 25.7224017 ], [ 103.773941, 25.7172721 ], [ 103.8363406, 25.7449702 ], [ 103.833852, 25.7535449 ], [ 103.8327756, 25.7558357 ], [ 103.8316991, 25.7578213 ], [ 103.8814852, 25.7592073 ], [ 103.8875082, 25.761384 ], [ 103.8879259, 25.7615212 ], [ 103.8881899, 25.761598 ], [ 103.8884245, 25.7616535 ], [ 103.8886953, 25.7617078 ], [ 103.8888539, 25.7617324 ], [ 103.8890295, 25.7617527 ], [ 103.8892236, 25.7617669 ], [ 103.9131199, 25.7655947 ], [ 103.9133542, 25.7656596 ], [ 103.9136132, 25.7657257 ], [ 103.940469, 25.7761892 ], [ 103.941088, 25.776459 ], [ 103.9348679, 25.7685144 ], [ 103.9348123, 25.7684295 ], [ 103.9346606, 25.7682229 ], [ 103.9345543, 25.768087 ], [ 103.9344318, 25.7679395 ], [ 103.9342965, 25.7677882 ], [ 103.9341513, 25.7676409 ], [ 103.9339993, 25.7675051 ], [ 103.9338447, 25.7673899 ], [ 103.9221798, 25.7050759 ], [ 103.9619417, 25.687253 ], [ 104.0221799, 25.6674943 ], [ 104.042893, 25.6731867 ], [ 104.0430057, 25.6732181 ], [ 104.0611589, 25.678809 ], [ 104.0640469, 25.679684 ], [ 104.082964, 25.6880529 ], [ 104.083623, 25.688363 ], [ 104.084552, 25.688633 ], [ 104.085055, 25.6887109 ], [ 104.0861609, 25.6886486 ], [ 104.0928029, 25.6877008 ], [ 104.062669, 25.6580213 ], [ 104.0623552, 25.6580092 ], [ 104.0159461, 25.6498139 ], [ 103.9808396, 25.6634595 ], [ 103.9736756, 25.6641092 ], [ 103.9712151, 25.6644427 ], [ 103.9667555, 25.6650472 ], [ 103.9634432, 25.6654812 ], [ 103.9627765, 25.6655685 ], [ 103.9612194, 25.6657725 ], [ 103.9587384, 25.6660334 ], [ 103.9571854, 25.6661593 ], [ 103.9544731, 25.6666621 ], [ 103.902493, 25.6232454 ], [ 103.9001298, 25.6213 ], [ 103.8997436, 25.6209856 ], [ 103.8992081, 25.620605 ], [ 103.8989425, 25.6205229 ], [ 103.868649, 25.5687043 ], [ 103.9083805, 25.5337771 ], [ 103.9085092, 25.5336802 ], [ 103.9317705, 25.5215496 ], [ 103.9318603, 25.5215073 ], [ 103.9324504, 25.5210389 ], [ 103.9325952, 25.5208671 ], [ 103.9326435, 25.5206565 ], [ 103.9326918, 25.5167376 ], [ 103.9326677, 25.5164254 ], [ 103.9324638, 25.5157452 ], [ 103.9245542, 25.5111766 ], [ 103.8826307, 25.4752754 ], [ 103.8820368, 25.474027 ], [ 103.8813838, 25.472876 ], [ 103.8752794, 25.459025 ], [ 103.871653, 25.4463149 ], [ 103.8713741, 25.4451814 ], [ 103.8699249, 25.4417578 ], [ 103.8672328, 25.4327025 ], [ 103.8702112, 25.4039504 ], [ 103.8703187, 25.4036841 ], [ 103.8704165, 25.4034146 ], [ 103.8705045, 25.4031424 ], [ 103.9255537, 25.3739159 ], [ 103.9443774, 25.3861053 ], [ 103.9445801, 25.3862868 ], [ 103.9451423, 25.3865507 ], [ 103.9456091, 25.3867251 ], [ 103.9612307, 25.3950952 ], [ 103.9670628, 25.3892615 ], [ 103.9663225, 25.3884945 ], [ 103.9661445, 25.3883251 ], [ 103.9645696, 25.3873625 ], [ 103.9633082, 25.3868776 ], [ 103.9496624, 25.3796134 ], [ 103.9310739, 25.3195559 ], [ 103.9311898, 25.3192012 ], [ 103.9439081, 25.2973839 ], [ 103.9440858, 25.2971842 ], [ 103.9442525, 25.2969847 ], [ 103.9647844, 25.2807528 ], [ 103.9729413, 25.2760149 ], [ 103.973316, 25.2757898 ], [ 104.0323299, 25.2643364 ], [ 104.0456665, 25.2738584 ], [ 104.04616, 25.2743289 ], [ 104.046337, 25.274455 ], [ 104.0567547, 25.2810133 ], [ 104.0663087, 25.2585285 ], [ 104.0662599, 25.2556814 ], [ 104.0579403, 25.2315658 ], [ 104.0373506, 25.2154409 ], [ 104.0372199, 25.2152947 ], [ 104.0370834, 25.2151529 ], [ 104.0369314, 25.2150064 ], [ 104.0367734, 25.2148653 ], [ 104.0169101, 25.1693961 ], [ 104.0248204, 25.1435514 ], [ 104.0250447, 25.1431806 ], [ 104.0252606, 25.1428057 ], [ 104.025468, 25.1424269 ], [ 104.0256669, 25.1420443 ], [ 104.0258499, 25.1416735 ], [ 104.0260248, 25.1412995 ], [ 104.0261916, 25.1409225 ], [ 104.0263503, 25.1405426 ], [ 104.0265008, 25.14016 ], [ 104.0266431, 25.1397748 ], [ 104.034504, 25.1236994 ], [ 104.0347694, 25.1232804 ], [ 104.0350165, 25.1228747 ], [ 104.0352561, 25.1224654 ], [ 104.0432956, 25.1109516 ], [ 104.0435817, 25.1105423 ], [ 104.0438644, 25.1101233 ], [ 104.0441396, 25.1097003 ], [ 104.0444075, 25.1092735 ], [ 104.0446679, 25.1088428 ], [ 104.0449207, 25.1084085 ], [ 104.0882804, 25.0673767 ], [ 104.085937, 25.048917 ], [ 104.085899, 25.0485144 ], [ 104.0858546, 25.0481329 ], [ 104.0858013, 25.0477525 ], [ 104.0857392, 25.0473731 ], [ 104.0856683, 25.046995 ], [ 104.0855886, 25.0466184 ], [ 104.0855002, 25.0462434 ], [ 104.085403, 25.0458701 ], [ 104.0852973, 25.0454987 ], [ 104.0614481, 25.0824956 ], [ 104.0611744, 25.0827602 ], [ 104.0607095, 25.0832248 ], [ 104.0605135, 25.0834274 ], [ 104.0603238, 25.0836349 ], [ 104.0601405, 25.0838471 ], [ 104.0599639, 25.0840639 ], [ 104.0597941, 25.0842851 ], [ 104.0521432, 25.0931452 ], [ 104.0518553, 25.0934471 ], [ 104.0515752, 25.0937549 ], [ 104.0513029, 25.0940685 ], [ 104.0510386, 25.0943876 ], [ 104.0507825, 25.0947122 ], [ 104.0505346, 25.095042 ], [ 104.0502877, 25.0953877 ], [ 104.0500498, 25.0957386 ], [ 104.0498212, 25.0960946 ], [ 104.0496019, 25.0964553 ], [ 104.0493922, 25.0968206 ], [ 104.049192, 25.0971904 ], [ 104.0489996, 25.0975683 ], [ 104.0390667, 25.1156949 ], [ 104.0387458, 25.1161611 ], [ 104.0384358, 25.1166284 ], [ 104.0381343, 25.1171002 ], [ 104.0378415, 25.1175765 ], [ 104.0375573, 25.118057 ], [ 104.0372983, 25.1185121 ], [ 104.0370472, 25.1189707 ], [ 104.0311912, 25.1281393 ], [ 104.0309224, 25.12851 ], [ 104.0306627, 25.1288854 ], [ 104.0304118, 25.1292656 ], [ 104.0301699, 25.1296507 ], [ 104.029937, 25.1300402 ], [ 104.0297134, 25.1304342 ], [ 104.0295061, 25.1308191 ], [ 104.0293075, 25.1312078 ], [ 104.0291178, 25.1316001 ], [ 104.028937, 25.1319959 ], [ 104.0287653, 25.1323949 ], [ 104.0286012, 25.1328005 ], [ 104.0208998, 25.1487627 ], [ 104.0206461, 25.1491398 ], [ 104.0204015, 25.1495219 ], [ 104.0201663, 25.1499088 ], [ 104.0199404, 25.1503002 ], [ 104.0197243, 25.1506955 ], [ 104.0195283, 25.1510664 ], [ 104.0193401, 25.1514409 ], [ 104.0191598, 25.1518186 ], [ 104.0189876, 25.1521993 ], [ 104.0188236, 25.152583 ], [ 104.0186677, 25.1529695 ], [ 104.0185171, 25.1533666 ], [ 104.0183752, 25.1537662 ], [ 104.018242, 25.1541683 ], [ 104.0181175, 25.1545727 ], [ 104.0180019, 25.1549792 ], [ 104.017895, 25.1553877 ], [ 104.017797, 25.155798 ], [ 104.0177074, 25.1562129 ], [ 104.0176081, 25.1569689 ], [ 104.0175179, 25.1577222 ], [ 104.0174362, 25.1584764 ], [ 104.0173631, 25.1592312 ], [ 104.0173034, 25.1599267 ], [ 104.017251, 25.1606227 ], [ 104.010153, 25.1847215 ], [ 104.0099587, 25.1850751 ], [ 104.0097724, 25.1854322 ], [ 104.0095942, 25.1857926 ], [ 104.0094096, 25.1861879 ], [ 104.0092348, 25.1865869 ], [ 104.0003371, 25.2016795 ], [ 103.9950291, 25.2076017 ], [ 103.9949153, 25.2077251 ], [ 103.9948087, 25.2078537 ], [ 103.9947097, 25.2079871 ], [ 103.9946186, 25.2081251 ], [ 103.9945338, 25.2082708 ], [ 103.9944578, 25.2084203 ], [ 103.9943907, 25.2085733 ], [ 103.9943329, 25.2087294 ], [ 103.9942844, 25.208888 ], [ 103.9942454, 25.2090488 ], [ 103.9942161, 25.2092113 ], [ 103.9941965, 25.2093749 ], [ 103.9941866, 25.2095393 ], [ 103.9941865, 25.2097039 ], [ 103.9941962, 25.2098683 ], [ 103.9942157, 25.2100319 ], [ 103.9853139, 25.2467255 ], [ 103.9847439, 25.2475527 ], [ 103.9841649, 25.2483749 ], [ 103.9835771, 25.2491919 ], [ 103.9829805, 25.2500036 ], [ 103.982375, 25.2508099 ], [ 103.9817609, 25.2516109 ], [ 103.9811381, 25.2524064 ], [ 103.9805068, 25.2531963 ], [ 103.9798669, 25.2539806 ], [ 103.9792185, 25.2547592 ], [ 103.9785617, 25.2555319 ], [ 103.9778966, 25.2562988 ], [ 103.9772232, 25.2570598 ], [ 103.9765416, 25.2578148 ], [ 103.9758518, 25.2585637 ], [ 103.975154, 25.2593064 ], [ 103.9744481, 25.2600429 ], [ 103.9737343, 25.2607731 ], [ 103.9730127, 25.2614969 ], [ 103.9723198, 25.2621786 ], [ 103.97162, 25.2628544 ], [ 103.9709133, 25.2635243 ], [ 103.9701997, 25.2641882 ], [ 103.9694793, 25.264846 ], [ 103.9687521, 25.2654978 ], [ 103.9680183, 25.2661434 ], [ 103.9637611, 25.2694246 ], [ 103.9634576, 25.2696726 ], [ 103.9631602, 25.2699267 ], [ 103.9628691, 25.2701865 ], [ 103.9625843, 25.2704521 ], [ 103.9623061, 25.2707233 ], [ 103.9620345, 25.271 ], [ 103.8976779, 25.2473112 ], [ 103.8974854, 25.2467806 ], [ 103.8974526, 25.2466901 ], [ 103.8843849, 25.2463019 ], [ 103.8805859, 25.2462836 ], [ 103.8409526, 25.1921892 ], [ 103.8347402, 25.1571085 ], [ 103.8349172, 25.1560621 ], [ 103.8351721, 25.1543529 ], [ 103.8948969, 25.1223708 ], [ 103.8950069, 25.122385 ], [ 103.9155379, 25.1149514 ], [ 103.9099764, 25.1031462 ], [ 103.8534987, 25.0692395 ], [ 103.8532948, 25.0544962 ], [ 103.7910064, 25.0360368 ], [ 103.7876781, 25.0230773 ], [ 103.7876429, 25.0228077 ], [ 103.7870962, 25.018247 ], [ 103.7870615, 25.0180262 ], [ 103.7863408, 25.0119489 ], [ 103.7862104, 25.0059346 ], [ 103.8079153, 24.9687852 ], [ 103.8524996, 24.9693057 ], [ 103.9186447, 24.951746 ], [ 103.9188475, 24.9517946 ], [ 103.9189661, 24.9517737 ], [ 103.919758, 24.9515864 ], [ 103.9198919, 24.9515483 ], [ 103.9219426, 24.9506429 ], [ 103.9220421, 24.9505701 ], [ 103.9332971, 24.8850292 ], [ 103.9869006, 24.8780376 ], [ 104.0363082, 24.8796028 ], [ 104.0658947, 24.909705 ], [ 104.0735561, 24.9024942 ], [ 104.073627, 24.902427 ], [ 104.0736903, 24.9023539 ], [ 104.0828204, 24.8920034 ], [ 104.0837216, 24.8910399 ], [ 104.0845692, 24.889945 ], [ 104.0848267, 24.889585 ], [ 104.0850245, 24.8892719 ], [ 104.0852158, 24.8889555 ], [ 104.0854007, 24.888636 ], [ 104.0855828, 24.8883065 ], [ 104.0857581, 24.887974 ], [ 104.0859264, 24.8876385 ], [ 104.0867257, 24.8860861 ], [ 104.1433714, 24.8493853 ], [ 104.1521286, 24.8494422 ], [ 104.1538506, 24.8494325 ], [ 104.155122, 24.8493254 ], [ 104.1559052, 24.849155 ], [ 104.1569996, 24.8488678 ], [ 104.1581637, 24.8485466 ], [ 104.1606366, 24.8477629 ], [ 104.1875539, 24.8415494 ], [ 104.1871387, 24.8414529 ], [ 104.1867213, 24.8413648 ], [ 104.1863018, 24.8412851 ], [ 104.1858804, 24.8412139 ], [ 104.1854575, 24.8411511 ], [ 104.1850339, 24.841097 ], [ 104.183714, 24.8409501 ], [ 104.1826273, 24.840885 ], [ 104.1814399, 24.8409477 ], [ 104.1805118, 24.8410159 ], [ 104.1793796, 24.8412294 ], [ 104.1775882, 24.8418191 ], [ 104.1763705, 24.8422523 ], [ 104.1732323, 24.8433428 ], [ 104.1674065, 24.8453679 ], [ 104.1484434, 24.8490869 ], [ 104.1036496, 24.816082 ], [ 104.1035349, 24.8157582 ], [ 104.1034109, 24.8154373 ], [ 104.1223412, 24.7527899 ], [ 104.1212488, 24.7528173 ], [ 104.1119653, 24.7534714 ], [ 104.0805594, 24.7558893 ], [ 104.0621352, 24.7661708 ], [ 104.0441751, 24.775552 ], [ 103.9971122, 24.7273569 ], [ 103.9825526, 24.7017302 ], [ 103.9824213, 24.7013776 ], [ 103.9822806, 24.701028 ], [ 103.9821308, 24.7006815 ], [ 103.9819719, 24.7003384 ], [ 103.9818039, 24.6999988 ], [ 103.981627, 24.6996631 ], [ 103.9814413, 24.6993313 ], [ 103.9812468, 24.6990036 ], [ 103.9810438, 24.6986802 ], [ 103.980833, 24.6983626 ], [ 103.979789, 24.6967786 ], [ 103.9752453, 24.6893873 ], [ 103.9750766, 24.6891066 ], [ 103.9665677, 24.673365 ], [ 103.9663734, 24.6729557 ], [ 103.9661694, 24.6725504 ], [ 103.9659558, 24.6721491 ], [ 103.9657328, 24.6717521 ], [ 103.9655003, 24.6713596 ], [ 103.9652585, 24.6709717 ], [ 103.9647721, 24.6702244 ], [ 103.9645286, 24.6698614 ], [ 103.9642786, 24.6695021 ], [ 103.9640222, 24.6691466 ], [ 103.9637594, 24.6687949 ], [ 103.9634902, 24.6684472 ], [ 103.9631981, 24.6680831 ], [ 103.9530418, 24.6543726 ], [ 103.9528357, 24.6540629 ], [ 103.952621, 24.6537582 ], [ 103.952398, 24.6534584 ], [ 103.9521667, 24.6531638 ], [ 103.9519273, 24.6528746 ], [ 103.95168, 24.652591 ], [ 103.951425, 24.6523131 ], [ 103.9511815, 24.6520607 ], [ 103.9509317, 24.6518135 ], [ 103.9506756, 24.6515717 ], [ 103.9504134, 24.6513353 ], [ 103.9501451, 24.6511047 ], [ 103.949871, 24.6508797 ], [ 103.9495912, 24.6506607 ], [ 103.9493058, 24.6504476 ], [ 103.949014, 24.6502399 ], [ 103.9373708, 24.6413865 ], [ 103.9370418, 24.6410898 ], [ 103.9367072, 24.6407984 ], [ 103.9363342, 24.640485 ], [ 103.9359547, 24.640178 ], [ 103.935569, 24.6398775 ], [ 103.935177, 24.6395838 ], [ 103.934779, 24.6392968 ], [ 103.9343752, 24.6390166 ], [ 103.9339656, 24.6387435 ], [ 103.9335466, 24.638475 ], [ 103.933127, 24.6382598 ], [ 103.9327082, 24.6380525 ], [ 103.932286, 24.6378508 ], [ 103.9318606, 24.6376549 ], [ 103.931432, 24.6374647 ], [ 103.9309502, 24.6372594 ], [ 103.9304647, 24.6370614 ], [ 103.9299756, 24.6368708 ], [ 103.9294831, 24.6366875 ], [ 103.917877, 24.6312871 ], [ 103.917806, 24.6312462 ], [ 103.8900407, 24.6060644 ], [ 103.8446523, 24.5590934 ], [ 103.8878694, 24.5260636 ], [ 103.9298876, 24.5122672 ], [ 103.929939, 24.5122724 ], [ 103.9345871, 24.5124682 ], [ 103.9209317, 24.4973977 ], [ 103.8970372, 24.4817808 ], [ 103.8812417, 24.4861954 ], [ 103.8811444, 24.4862039 ], [ 103.8431141, 24.4652159 ], [ 103.8658386, 24.4125189 ], [ 103.8658699, 24.4125058 ], [ 103.8658957, 24.4124884 ], [ 103.8659171, 24.4124667 ], [ 103.8659333, 24.4124415 ], [ 103.8659437, 24.4124139 ], [ 103.8659477, 24.4123849 ], [ 103.8640662, 24.4115596 ], [ 103.8040262, 24.3834513 ], [ 103.7863753, 24.374136 ], [ 103.7848055, 24.3736687 ], [ 103.7844066, 24.3735899 ], [ 103.783734, 24.3735026 ], [ 103.7835851, 24.3734916 ], [ 103.7834996, 24.3734948 ], [ 103.7834148, 24.373505 ], [ 103.7833299, 24.373533 ], [ 103.744346, 24.4135718 ], [ 103.7129988, 24.3655431 ], [ 103.7130041, 24.3654821 ], [ 103.7129961, 24.3654527 ], [ 103.7126876, 24.3646923 ], [ 103.670471, 24.3297026 ], [ 103.670422, 24.329644 ], [ 103.6703683, 24.3295889 ], [ 103.6703101, 24.3295377 ], [ 103.6702365, 24.3294813 ], [ 103.6700778, 24.3293816 ], [ 103.6699949, 24.329336 ], [ 103.6689743, 24.3288839 ], [ 103.6679819, 24.3285222 ], [ 103.6677992, 24.3284664 ], [ 103.6677057, 24.3284452 ], [ 103.6675096, 24.3284159 ], [ 103.6662271, 24.3283006 ], [ 103.6686505, 24.3372026 ], [ 103.6686686, 24.3373094 ], [ 103.6687101, 24.337486 ], [ 103.6687584, 24.3376613 ], [ 103.66882, 24.3378543 ], [ 103.6688898, 24.338045 ], [ 103.6690018, 24.3383226 ], [ 103.6690441, 24.3384091 ], [ 103.6690768, 24.3384653 ], [ 103.6691862, 24.3386278 ], [ 103.6752252, 24.3497956 ], [ 103.675498, 24.3504269 ], [ 103.6739632, 24.390518 ], [ 103.6204683, 24.4127501 ], [ 103.6201374, 24.4126516 ], [ 103.6198041, 24.4125602 ], [ 103.6194685, 24.412476 ], [ 103.6191308, 24.412399 ], [ 103.6189266, 24.4123561 ], [ 103.6187207, 24.4123204 ], [ 103.6185135, 24.4122921 ], [ 103.6183052, 24.4122711 ], [ 103.6180961, 24.4122575 ], [ 103.6178867, 24.4122513 ], [ 103.6176771, 24.4122524 ], [ 103.6175015, 24.4122591 ], [ 103.6173263, 24.412271 ], [ 103.6169763, 24.4122988 ], [ 103.6166273, 24.4123357 ], [ 103.6162797, 24.4123819 ], [ 103.6159933, 24.4124269 ], [ 103.6157082, 24.4124782 ], [ 103.6154245, 24.4125356 ], [ 103.5854889, 24.4059286 ], [ 103.5782348, 24.352579 ], [ 103.5783613, 24.3523412 ], [ 103.5787765, 24.3514514 ], [ 103.5788477, 24.351246 ], [ 103.5788477, 24.3510731 ], [ 103.5779145, 24.3481659 ], [ 103.5770603, 24.3491097 ], [ 103.5769615, 24.3492538 ], [ 103.5602269, 24.3655112 ], [ 103.5313892, 24.3735022 ], [ 103.4897222, 24.352061 ], [ 103.4889654, 24.3511806 ], [ 103.4884565, 24.350717 ], [ 103.487697, 24.3500888 ], [ 103.4869524, 24.3496345 ], [ 103.486328, 24.3492657 ], [ 103.4854408, 24.3489069 ], [ 103.4569267, 24.2872339 ], [ 103.4761342, 24.2682199 ], [ 103.4762657, 24.268083 ], [ 103.4771723, 24.2667039 ], [ 103.5256848, 24.2376377 ], [ 103.526178, 24.237577 ], [ 103.5434366, 24.235611 ], [ 103.548858, 24.2359621 ], [ 103.5495425, 24.2360366 ], [ 103.5551661, 24.2364444 ], [ 103.5553333, 24.236455 ], [ 103.5649548, 24.2372565 ], [ 103.5659349, 24.237409 ], [ 103.5674633, 24.2374232 ], [ 103.5517645, 24.1967711 ], [ 103.558926, 24.1600698 ], [ 103.5508709, 24.1589439 ], [ 103.550656, 24.158953 ], [ 103.550478, 24.159063 ], [ 103.5120427, 24.1893831 ], [ 103.5113186, 24.1908785 ], [ 103.5106477, 24.1922199 ], [ 103.5093327, 24.1948539 ], [ 103.45861, 24.2150673 ], [ 103.4370652, 24.1844643 ], [ 103.4370545, 24.184364 ], [ 103.4370062, 24.1842514 ], [ 103.434154, 24.1795843 ], [ 103.4336206, 24.1786558 ], [ 103.4268291, 24.1527432 ], [ 103.4268425, 24.1519564 ], [ 103.4267936, 24.1513359 ], [ 103.4266065, 24.1355533 ], [ 103.4265911, 24.1354086 ], [ 103.4257725, 24.1277113 ], [ 103.4257578, 24.1274484 ], [ 103.4256501, 24.1255233 ], [ 103.4227732, 24.1076667 ], [ 103.4227056, 24.106366 ], [ 103.4226646, 24.1057543 ], [ 103.4225214, 24.104825 ], [ 103.4224805, 24.1045588 ], [ 103.4222869, 24.1035745 ], [ 103.42209, 24.1027965 ], [ 103.4186123, 24.0847806 ], [ 103.4185481, 24.0841096 ], [ 103.4167958, 24.0749687 ], [ 103.4165503, 24.0739009 ], [ 103.4161688, 24.0727047 ], [ 103.4157372, 24.0717129 ], [ 103.4150747, 24.0704242 ], [ 103.4144713, 24.0695584 ], [ 103.4137634, 24.0686286 ], [ 103.4127817, 24.067508 ], [ 103.4071946, 24.0618395 ], [ 103.3865454, 24.0097037 ], [ 103.3865235, 24.0087729 ], [ 103.3864143, 24.0076027 ], [ 103.3862397, 24.0066386 ], [ 103.3859412, 24.0056944 ], [ 103.4163761, 23.9483748 ], [ 103.4312009, 23.9473539 ], [ 103.432058, 23.947445 ], [ 103.432904, 23.947387 ], [ 103.4379779, 23.947298 ], [ 103.439065, 23.947213 ], [ 103.4462599, 23.946192 ], [ 103.447015, 23.945946 ], [ 103.44739, 23.945681 ], [ 103.4500709, 23.9415719 ], [ 103.4502889, 23.940975 ], [ 103.4802739, 23.8816459 ], [ 103.4833469, 23.876461 ], [ 103.462321, 23.8933702 ], [ 103.4621157, 23.8935015 ], [ 103.4618609, 23.8936854 ], [ 103.4616065, 23.8938883 ], [ 103.4573759, 23.897933 ], [ 103.4569609, 23.898507 ], [ 103.4566719, 23.8991439 ], [ 103.45656, 23.899602 ], [ 103.453198, 23.9118299 ], [ 103.402134, 23.9447789 ], [ 103.401324, 23.944745 ], [ 103.4005449, 23.9448359 ], [ 103.3995519, 23.9451929 ], [ 103.3943537, 23.9470006 ], [ 103.3933759, 23.9473522 ], [ 103.3355578, 23.9397202 ], [ 103.3180915, 23.9137877 ], [ 103.3178777, 23.9131449 ], [ 103.31762, 23.9124675 ], [ 103.3173671, 23.9118309 ], [ 103.3170971, 23.9111972 ], [ 103.3167264, 23.9104144 ], [ 103.3164332, 23.9098185 ], [ 103.3161449, 23.9092826 ], [ 103.3158096, 23.9086637 ], [ 103.3153973, 23.9079443 ], [ 103.3149832, 23.9072809 ], [ 103.3145035, 23.9065908 ], [ 103.3138302, 23.9056477 ], [ 103.3133043, 23.904957 ], [ 103.3123992, 23.903856 ], [ 103.310399, 23.9015597 ], [ 103.3092868, 23.9002716 ], [ 103.300668, 23.8902051 ], [ 103.2800329, 23.8273003 ], [ 103.2785611, 23.8302555 ], [ 103.2785683, 23.8304101 ], [ 103.2797204, 23.8476214 ], [ 103.2797501, 23.8482051 ], [ 103.2798135, 23.8488017 ], [ 103.2799288, 23.8494506 ], [ 103.2801022, 23.8501221 ], [ 103.2802833, 23.8506683 ], [ 103.2804843, 23.8512184 ], [ 103.2884525, 23.8733718 ], [ 103.2888184, 23.8746145 ], [ 103.2891774, 23.8756266 ], [ 103.289602, 23.8766701 ], [ 103.2901479, 23.8778043 ], [ 103.2925006, 23.8825676 ], [ 103.3053844, 23.9429649 ], [ 103.3060031, 23.9440427 ], [ 103.3078757, 23.9467193 ], [ 103.3187115, 23.9575496 ], [ 103.3190042, 23.9579268 ], [ 103.3191571, 23.9580227 ], [ 103.3446122, 23.9909922 ], [ 103.3450664, 23.9926996 ], [ 103.345525, 23.9942754 ], [ 103.3460786, 23.9961771 ], [ 103.3464909, 23.9976872 ], [ 103.3467042, 23.9984639 ], [ 103.3469173, 23.9992214 ], [ 103.3471002, 23.9998541 ], [ 103.3472793, 24.0004501 ], [ 103.3473735, 24.0007482 ], [ 103.3474111, 24.0008603 ], [ 103.3474576, 24.0009993 ], [ 103.3476239, 24.0014566 ], [ 103.3478234, 24.0019893 ], [ 103.3481516, 24.0028465 ], [ 103.3484672, 24.0036522 ], [ 103.3491845, 24.0054366 ], [ 103.3539118, 24.0205822 ], [ 103.3539324, 24.0207419 ], [ 103.3539523, 24.0208327 ], [ 103.353969, 24.0208912 ], [ 103.3540114, 24.021004 ], [ 103.3540652, 24.021111 ], [ 103.3541371, 24.0212327 ], [ 103.3541985, 24.0213206 ], [ 103.354265, 24.0214008 ], [ 103.3594282, 24.0286833 ], [ 103.3627993, 24.0349616 ], [ 103.3634734, 24.0362103 ], [ 103.3687531, 24.0460459 ], [ 103.3700345, 24.0488577 ], [ 103.3706699, 24.0504223 ], [ 103.3751864, 24.0619303 ], [ 103.375519, 24.0627277 ], [ 103.3758644, 24.0634273 ], [ 103.3797678, 24.0861901 ], [ 103.3795077, 24.0884111 ], [ 103.3794916, 24.0887686 ], [ 103.3795398, 24.0892289 ], [ 103.379741, 24.0918587 ], [ 103.3797973, 24.0922994 ], [ 103.379939, 24.0929769 ], [ 103.3187664, 24.1235588 ], [ 103.3153707, 24.1189859 ], [ 103.3045453, 24.0998702 ], [ 103.3043629, 24.0991356 ], [ 103.3035582, 24.0971769 ], [ 103.3011338, 24.0874475 ], [ 103.3011228, 24.0873924 ], [ 103.3011044, 24.0873428 ], [ 103.3010785, 24.087296 ], [ 103.2951629, 24.0745168 ], [ 103.2941061, 24.0689772 ], [ 103.2940096, 24.0684384 ], [ 103.2935643, 24.0655192 ], [ 103.2934946, 24.0650882 ], [ 103.2932585, 24.0637656 ], [ 103.2925343, 24.0615125 ], [ 103.2405171, 24.048811 ], [ 103.2401832, 24.0490018 ], [ 103.226634, 24.0596662 ], [ 103.2254645, 24.061077 ], [ 103.2223854, 24.0663131 ], [ 103.2215418, 24.0690166 ], [ 103.217717, 24.0850664 ], [ 103.1712824, 24.1229223 ], [ 103.1706334, 24.1247864 ], [ 103.1686566, 24.1309558 ], [ 103.1686244, 24.131039 ], [ 103.1684258, 24.1323785 ], [ 103.1684151, 24.1325653 ], [ 103.1682971, 24.1346405 ], [ 103.1632519, 24.1530286 ], [ 103.0960471, 24.1573277 ], [ 103.092528, 24.1512191 ], [ 103.0897102, 24.1448272 ], [ 103.0894441, 24.1442212 ], [ 103.088236, 24.1422308 ], [ 103.0817773, 24.1324302 ], [ 103.0812837, 24.1315784 ], [ 103.0784792, 24.127469 ], [ 103.0732586, 24.1193094 ], [ 103.0725612, 24.1182714 ], [ 103.0689456, 24.1138159 ], [ 103.0636285, 24.1061491 ], [ 103.060738, 24.1018683 ], [ 103.0601908, 24.1013101 ], [ 103.0312296, 24.0432983 ], [ 103.031203, 24.0431873 ], [ 103.0227331, 23.9917451 ], [ 103.0250272, 23.9554503 ], [ 103.0248759, 23.9552518 ], [ 103.0220336, 23.9530112 ], [ 103.0007897, 23.9402694 ], [ 103.0004045, 23.9401345 ], [ 102.9979787, 23.9400193 ], [ 102.9972822, 23.9400828 ], [ 102.9860115, 23.9411516 ], [ 102.9849816, 23.9413919 ], [ 102.958384, 23.9472411 ], [ 102.9577402, 23.9472803 ], [ 102.9371355, 23.9466626 ], [ 102.9203242, 23.9428088 ], [ 102.9189555, 23.942407 ], [ 102.9074971, 23.9388769 ], [ 102.9013235, 23.9368812 ], [ 102.8582288, 23.8842098 ], [ 102.8538343, 23.8653253 ], [ 102.8532239, 23.8573924 ], [ 102.8531377, 23.8570115 ], [ 102.8529079, 23.856473 ], [ 102.8479058, 23.8319635 ], [ 102.8478914, 23.8314319 ], [ 102.8477408, 23.830815 ], [ 102.8475112, 23.8301193 ], [ 102.8419068, 23.8178417 ], [ 102.8417848, 23.8175135 ], [ 102.8367924, 23.7993883 ], [ 102.8360319, 23.7939397 ], [ 102.8359387, 23.7934605 ], [ 102.835006, 23.7877293 ], [ 102.8349055, 23.7866592 ], [ 102.8344894, 23.7744016 ], [ 102.8345253, 23.7738567 ], [ 102.8344894, 23.7733248 ], [ 102.8698871, 23.7321777 ], [ 102.9029515, 23.7511924 ], [ 102.9030374, 23.7513299 ], [ 102.9055586, 23.7544109 ], [ 102.9082383, 23.7585348 ], [ 102.9114521, 23.7649285 ], [ 102.9127933, 23.7669727 ], [ 102.9131556, 23.767516 ], [ 102.9132272, 23.7675822 ], [ 102.9138823, 23.7680659 ], [ 102.9150344, 23.7687197 ], [ 102.9242028, 23.7756909 ], [ 102.9244394, 23.7751973 ], [ 102.9245402, 23.7747932 ], [ 102.9331461, 23.7231474 ], [ 102.9018359, 23.6663279 ], [ 102.941302, 23.6528866 ], [ 102.9544932, 23.6456474 ], [ 102.9843497, 23.6401548 ], [ 102.985301, 23.6401837 ], [ 102.985925, 23.6401387 ], [ 102.9865589, 23.6400392 ], [ 102.987152, 23.6398877 ], [ 102.987874, 23.6396497 ], [ 102.988371, 23.6394397 ], [ 103.051912, 23.6357228 ], [ 103.0520126, 23.6357388 ], [ 103.0521414, 23.6357326 ], [ 103.0522688, 23.6357007 ], [ 103.0523694, 23.6356564 ], [ 103.0541477, 23.6348333 ], [ 103.0598269, 23.6221564 ], [ 103.0402699, 23.625827 ], [ 103.0325562, 23.6271352 ], [ 103.0109197, 23.6303042 ], [ 103.0077171, 23.6306634 ], [ 102.9832174, 23.6324088 ], [ 102.9324388, 23.6192102 ], [ 102.8902163, 23.5990754 ], [ 102.8675668, 23.55908 ], [ 102.8670863, 23.5572494 ], [ 102.8646083, 23.5285699 ], [ 102.8646109, 23.5280615 ], [ 102.8643977, 23.5253172 ], [ 102.8643197, 23.5246543 ], [ 102.8641184, 23.5238975 ], [ 102.8637335, 23.5225956 ], [ 102.8619641, 23.5168653 ], [ 102.8619026, 23.5167263 ], [ 102.847948, 23.4908607 ], [ 102.8399867, 23.5080385 ], [ 102.8399598, 23.5082248 ], [ 102.8400177, 23.5084107 ], [ 102.84326, 23.5189 ], [ 102.8035674, 23.5719781 ], [ 102.7711811, 23.5995474 ], [ 102.770943, 23.5997131 ], [ 102.7706476, 23.5999535 ], [ 102.7683022, 23.6023688 ], [ 102.7673915, 23.6033181 ], [ 102.7668764, 23.6038688 ], [ 102.7665619, 23.6042427 ], [ 102.7662878, 23.6046875 ], [ 102.7661081, 23.6050291 ], [ 102.765988, 23.6053182 ], [ 102.7658879, 23.6055814 ], [ 102.7658173, 23.6058696 ], [ 102.759886, 23.6221456 ], [ 102.7081626, 23.6511381 ], [ 102.70103, 23.6505389 ], [ 102.6921555, 23.6494934 ], [ 102.6919024, 23.6495102 ], [ 102.6302731, 23.6419772 ], [ 102.629841, 23.6418587 ], [ 102.62401, 23.6410599 ], [ 102.6231099, 23.64111 ], [ 102.62205, 23.64133 ], [ 102.6322103, 23.654882 ], [ 102.6481599, 23.6545499 ], [ 102.65398, 23.6548799 ], [ 102.6547, 23.6549 ], [ 102.6746, 23.6529999 ], [ 102.6839299, 23.6530999 ], [ 102.6844299, 23.65303 ], [ 102.7116304, 23.6533127 ], [ 102.712255, 23.6534033 ], [ 102.7126904, 23.6534127 ], [ 102.7133582, 23.6534082 ], [ 102.7148522, 23.6533982 ], [ 102.7149984, 23.6533985 ], [ 102.7200892, 23.653409 ], [ 102.7202274, 23.6534092 ], [ 102.7223128, 23.6534135 ], [ 102.7223941, 23.6534137 ], [ 102.7245155, 23.6533987 ], [ 102.7270485, 23.6532648 ], [ 102.7292739, 23.6530753 ], [ 102.7386397, 23.6529888 ], [ 102.7387828, 23.6529863 ], [ 102.7813087, 23.6664441 ], [ 102.8149406, 23.7262767 ], [ 102.7858646, 23.770349 ], [ 102.7403606, 23.7985216 ], [ 102.7053387, 23.851026 ], [ 102.6959507, 23.8541234 ], [ 102.704888, 23.863108 ], [ 102.7151077, 23.9033087 ], [ 102.715321, 23.9100355 ], [ 102.7153239, 23.9100982 ], [ 102.715333, 23.9101604 ], [ 102.7153733, 23.9103431 ], [ 102.7156375, 23.9109941 ], [ 102.7157128, 23.9111525 ], [ 102.7157582, 23.9112283 ], [ 102.689431, 23.966244 ], [ 102.6581139, 23.951341 ], [ 102.6579539, 23.9512359 ], [ 102.6366419, 23.938849 ], [ 102.6150467, 23.9134984 ], [ 102.6024275, 23.8776296 ], [ 102.573274, 23.8610049 ], [ 102.570944, 23.8607789 ], [ 102.5706189, 23.8608 ], [ 102.5703329, 23.860942 ], [ 102.569994, 23.8613799 ], [ 102.569895, 23.862025 ], [ 102.5533026, 23.9204403 ], [ 102.5531792, 23.9207394 ], [ 102.5522069, 23.9253586 ], [ 102.5517634, 23.93311 ], [ 102.5516993, 23.9338354 ], [ 102.5517316, 23.9347131 ], [ 102.5517493, 23.9350508 ], [ 102.5517835, 23.9353016 ], [ 102.5520977, 23.9368491 ], [ 102.5531328, 23.9424713 ], [ 102.608866, 23.937826 ], [ 102.6092209, 23.937964 ], [ 102.6120069, 23.938281 ], [ 102.641311, 23.951631 ], [ 102.641441, 23.951719 ], [ 102.6614379, 23.9660039 ], [ 102.6510556, 24.0276274 ], [ 102.6417713, 24.0322196 ], [ 102.6416671, 24.0322597 ], [ 102.6395479, 24.033434 ], [ 102.639186, 24.0336481 ], [ 102.6390983, 24.0337057 ], [ 102.6367477, 24.0353823 ], [ 102.6366672, 24.0354484 ], [ 102.6113538, 24.0508815 ], [ 102.6112828, 24.0509317 ], [ 102.5881326, 24.0630236 ], [ 102.5716157, 24.0733218 ], [ 102.5705857, 24.0739487 ], [ 102.5697617, 24.0746359 ], [ 102.5584643, 24.0847739 ], [ 102.5552435, 24.087084 ], [ 102.5427465, 24.0943921 ], [ 102.5414805, 24.0950581 ], [ 102.5308431, 24.1000623 ], [ 102.5307442, 24.1001078 ], [ 102.5306379, 24.1001715 ], [ 102.5303568, 24.100384 ], [ 102.5247838, 24.1043191 ], [ 102.5195745, 24.1085926 ], [ 102.5194768, 24.10867 ], [ 102.5192204, 24.1089081 ], [ 102.5070381, 24.1171834 ], [ 102.5069686, 24.1172213 ], [ 102.5068812, 24.1172735 ], [ 102.5068202, 24.1173231 ], [ 102.5027741, 24.1203673 ], [ 102.4965052, 24.1239668 ], [ 102.4960579, 24.1241861 ], [ 102.4344919, 24.1037525 ], [ 102.4458019, 24.0590383 ], [ 102.4508116, 24.0535515 ], [ 102.4518258, 24.0525649 ], [ 102.4520602, 24.0522997 ], [ 102.4523405, 24.0517505 ], [ 102.4523711, 24.0516155 ], [ 102.453161, 24.0485579 ], [ 102.4531865, 24.0484276 ], [ 102.4608087, 24.0053952 ], [ 102.4068264, 23.9743733 ], [ 102.4015552, 23.9747874 ], [ 102.371812, 24.004982 ], [ 102.3706353, 24.0056225 ], [ 102.3526708, 24.012948 ], [ 102.3433084, 24.015261 ], [ 102.3431963, 24.0152843 ], [ 102.3336694, 24.0166389 ], [ 102.3135123, 24.0159731 ], [ 102.29172, 24.01107 ], [ 102.2883961, 24.009944 ], [ 102.2881696, 24.0098814 ], [ 102.2680313, 24.0083801 ], [ 102.2642439, 24.0073985 ], [ 102.2524889, 24.0048301 ], [ 102.2522902, 24.0048347 ], [ 102.2497887, 24.0048487 ], [ 102.2495442, 24.0048766 ], [ 102.2494168, 24.0049604 ], [ 102.2489481, 24.0054817 ], [ 102.2486628, 24.0058819 ], [ 102.1892518, 24.010129 ], [ 102.179017, 23.982697 ], [ 102.178925, 23.98194 ], [ 102.177911, 23.976458 ], [ 102.177623, 23.975487 ], [ 102.177154, 23.974584 ], [ 102.17228, 23.962302 ], [ 102.1720297, 23.9615776 ], [ 102.1656455, 23.9274305 ], [ 102.2174221, 23.9005251 ], [ 102.2177273, 23.9006174 ], [ 102.2180791, 23.9005901 ], [ 102.2354234, 23.8945903 ], [ 102.2406697, 23.8937346 ], [ 102.2486383, 23.8925384 ], [ 102.2710175, 23.8892661 ], [ 102.271429, 23.8892248 ], [ 102.297802, 23.8873432 ], [ 102.2974875, 23.8867768 ], [ 102.2972139, 23.8865632 ], [ 102.2959169, 23.8858919 ], [ 102.2892127, 23.8837448 ], [ 102.2850697, 23.8832642 ], [ 102.2674411, 23.8811092 ], [ 102.267167, 23.8812028 ], [ 102.2519979, 23.8854756 ], [ 102.2224281, 23.8886052 ], [ 102.2032789, 23.8858035 ], [ 102.1774919, 23.8765325 ], [ 102.1757121, 23.8761109 ], [ 102.1753715, 23.8760278 ], [ 102.1532205, 23.8110986 ], [ 102.1558678, 23.8086692 ], [ 102.1568093, 23.8078104 ], [ 102.1598985, 23.8052315 ], [ 102.1613937, 23.8038634 ], [ 102.1621446, 23.8030669 ], [ 102.1627976, 23.8020712 ], [ 102.1632767, 23.8011447 ], [ 102.1695413, 23.7916374 ], [ 102.1700175, 23.7910497 ], [ 102.2104959, 23.7573709 ], [ 102.2094047, 23.7568708 ], [ 102.2087668, 23.756705 ], [ 102.2075593, 23.7566842 ], [ 102.2057814, 23.7567408 ], [ 102.2036925, 23.7568605 ], [ 102.2012722, 23.7570868 ], [ 102.2002745, 23.757185 ], [ 102.199502, 23.7572832 ], [ 102.1987295, 23.7575483 ], [ 102.1979892, 23.7579313 ], [ 102.1892774, 23.7624679 ], [ 102.1886337, 23.7628214 ], [ 102.1880758, 23.763224 ], [ 102.1768427, 23.7703525 ], [ 102.1762419, 23.7707747 ], [ 102.1757269, 23.771246 ], [ 102.1751475, 23.7720806 ], [ 102.150852, 23.7983894 ], [ 102.1507823, 23.7984581 ], [ 102.0855886, 23.8130519 ], [ 102.0797622, 23.8036637 ], [ 102.0796216, 23.8033937 ], [ 102.0791567, 23.8024745 ], [ 102.0783333, 23.8011318 ], [ 102.0782447, 23.8009832 ], [ 102.0781562, 23.8008777 ], [ 102.0734811, 23.7957142 ], [ 102.0733067, 23.7955669 ], [ 102.0444885, 23.7534335 ], [ 102.0365876, 23.7160183 ], [ 102.0365484, 23.7155934 ], [ 102.0364594, 23.7152078 ], [ 102.0318195, 23.7054657 ], [ 102.0316208, 23.7051066 ], [ 102.0313528, 23.7046257 ], [ 102.0311006, 23.704342 ], [ 102.0261054, 23.6995105 ], [ 102.0257793, 23.6991904 ], [ 102.0072252, 23.6834527 ], [ 101.9725385, 23.6598944 ], [ 101.9673476, 23.6688942 ], [ 101.9671785, 23.6692433 ], [ 101.967052, 23.6695575 ], [ 101.9669706, 23.6698658 ], [ 101.9669025, 23.6702128 ], [ 101.9668768, 23.6705707 ], [ 101.9668815, 23.6709287 ], [ 101.9669045, 23.6712898 ], [ 101.9669421, 23.6716161 ], [ 101.9701168, 23.6894803 ], [ 101.9987442, 23.7129154 ], [ 102.0202129, 23.7517197 ], [ 102.0203589, 23.7520551 ], [ 102.0336436, 23.8102852 ], [ 102.033657, 23.8103809 ], [ 102.0338381, 23.8107563 ], [ 102.0339722, 23.8109379 ], [ 102.0345247, 23.811463 ], [ 102.03497, 23.8118213 ], [ 102.035265, 23.8120323 ], [ 102.0365632, 23.8128225 ], [ 102.0744789, 23.8326053 ], [ 102.08745, 23.8665999 ], [ 102.0543355, 23.9149727 ], [ 102.0541692, 23.915061 ], [ 102.0533806, 23.9158016 ], [ 102.0533109, 23.9158899 ], [ 102.0529997, 23.9176948 ], [ 102.0645838, 23.9748291 ], [ 102.064587, 23.9752055 ], [ 102.0719737, 24.0000241 ], [ 102.0719871, 24.0002937 ], [ 102.0722499, 24.0013399 ], [ 102.0723653, 24.0017248 ], [ 102.0583515, 24.0545408 ], [ 102.0256943, 24.0612668 ], [ 102.0248201, 24.0611873 ], [ 101.9816716, 24.0249724 ], [ 101.9807802, 24.0217499 ], [ 101.9803076, 24.0202146 ], [ 101.9802539, 24.0200723 ], [ 101.9799424, 24.0193856 ], [ 101.9792711, 24.0183751 ], [ 101.9773057, 24.0150837 ], [ 101.977021, 24.0146128 ], [ 101.9768653, 24.0144902 ], [ 101.9767257, 24.0144166 ], [ 101.9562904, 24.0000659 ], [ 101.9560433, 23.9998451 ], [ 101.9558339, 23.9997274 ], [ 101.9556835, 23.9997127 ], [ 101.9555761, 23.999801 ], [ 101.9512156, 24.0042751 ], [ 101.8939878, 24.0376262 ], [ 101.8783586, 24.0291456 ], [ 101.8782011, 24.029015 ], [ 101.8780272, 24.0289077 ], [ 101.8778748, 24.0288398 ], [ 101.8678774, 24.0236467 ], [ 101.8677671, 24.0235772 ], [ 101.8676528, 24.023515 ], [ 101.8674043, 24.023403 ], [ 101.8672664, 24.0233528 ], [ 101.8671192, 24.0233107 ], [ 101.8669637, 24.0232761 ], [ 101.8668011, 24.0232489 ], [ 101.8666326, 24.0232287 ], [ 101.8664594, 24.0232152 ], [ 101.8662826, 24.0232081 ], [ 101.8661034, 24.023207 ], [ 101.8658886, 24.0232139 ], [ 101.8653091, 24.0232505 ], [ 101.8408995, 24.0233531 ], [ 101.8407331, 24.0233437 ], [ 101.815974, 24.0220831 ], [ 101.7813404, 24.0176212 ], [ 101.75999, 24.0138384 ], [ 101.6954152, 24.0253591 ], [ 101.655788, 24.0177453 ], [ 101.655534, 24.0176658 ], [ 101.6552773, 24.0175941 ], [ 101.6550181, 24.0175302 ], [ 101.6547477, 24.0174724 ], [ 101.6544754, 24.0174231 ], [ 101.6542014, 24.0173823 ], [ 101.6409321, 24.015377 ], [ 101.6413252, 24.0157621 ], [ 101.641438, 24.0158634 ], [ 101.6415556, 24.01596 ], [ 101.641677, 24.0160511 ], [ 101.6418027, 24.0161372 ], [ 101.6419342, 24.0162192 ], [ 101.6424125, 24.0164675 ], [ 101.6427668, 24.0166325 ], [ 101.6431248, 24.0167885 ], [ 101.6434872, 24.0169357 ], [ 101.6438538, 24.0170741 ], [ 101.6442242, 24.0172036 ], [ 101.6662466, 24.0254947 ], [ 101.670127, 24.0269715 ], [ 101.6723928, 24.0272314 ], [ 101.739525, 24.0378351 ], [ 101.7489319, 24.0389014 ], [ 101.7600064, 24.039231 ], [ 101.7688963, 24.0395436 ], [ 101.7895582, 24.0416793 ], [ 101.7951408, 24.0418773 ], [ 101.7968283, 24.0417131 ], [ 101.8011005, 24.0412369 ], [ 101.8249367, 24.0335027 ], [ 101.8424356, 24.0307279 ], [ 101.8564904, 24.031845 ], [ 101.8569195, 24.0319233 ], [ 101.8940513, 24.0613595 ], [ 101.8868385, 24.1028414 ], [ 101.8869274, 24.1029687 ], [ 101.8892725, 24.1058906 ], [ 101.9031851, 24.1128818 ], [ 101.9045781, 24.113581 ], [ 101.9143066, 24.0930782 ], [ 101.974867, 24.0794145 ], [ 101.9770557, 24.0804528 ], [ 101.9783539, 24.0810796 ], [ 101.9786272, 24.0811918 ], [ 101.9789035, 24.0812978 ], [ 101.9791826, 24.0813976 ], [ 101.9794643, 24.081491 ], [ 101.9797468, 24.0815777 ], [ 101.9800315, 24.081658 ], [ 101.9803182, 24.081732 ], [ 101.9806069, 24.0817996 ], [ 101.9808434, 24.0818533 ], [ 101.9810815, 24.0819007 ], [ 101.981321, 24.0819415 ], [ 101.9815618, 24.0819759 ], [ 101.9818489, 24.0820082 ], [ 101.982137, 24.0820312 ], [ 101.9826776, 24.0820591 ], [ 101.9845712, 24.0821326 ], [ 101.9876236, 24.0823187 ], [ 101.9911909, 24.0824509 ], [ 101.9923121, 24.0824216 ], [ 101.9945759, 24.0821816 ], [ 101.9968879, 24.0818045 ], [ 102.0000958, 24.0812315 ], [ 102.0032716, 24.0805997 ], [ 102.0057768, 24.0800022 ], [ 102.0082257, 24.0793836 ], [ 102.0084536, 24.0793263 ], [ 102.0087097, 24.0792527 ], [ 102.0089625, 24.0791702 ], [ 102.0092117, 24.0790787 ], [ 102.0420934, 24.072196 ], [ 102.0423668, 24.0721858 ], [ 102.0426397, 24.072167 ], [ 102.0429117, 24.0721398 ], [ 102.0431826, 24.0721041 ], [ 102.0434519, 24.07206 ], [ 102.0437195, 24.0720075 ], [ 102.0439849, 24.0719467 ], [ 102.0442479, 24.0718776 ], [ 102.0445081, 24.0718004 ], [ 102.0447653, 24.0717152 ], [ 102.0453447, 24.0714654 ], [ 102.0506716, 24.0692564 ], [ 102.0521951, 24.0685952 ], [ 102.1005563, 24.0603299 ], [ 102.1008482, 24.0603758 ], [ 102.1011412, 24.0604156 ], [ 102.1014351, 24.0604495 ], [ 102.1017548, 24.0604794 ], [ 102.1020753, 24.0605023 ], [ 102.1023963, 24.0605179 ], [ 102.1027176, 24.0605265 ], [ 102.103039, 24.0605279 ], [ 102.1033411, 24.0605128 ], [ 102.1036425, 24.0604893 ], [ 102.1039429, 24.0604575 ], [ 102.1042422, 24.0604174 ], [ 102.10454, 24.060369 ], [ 102.1048361, 24.0603124 ], [ 102.1051454, 24.0602439 ], [ 102.1054522, 24.0601666 ], [ 102.1057562, 24.0600803 ], [ 102.1060569, 24.0599851 ], [ 102.1066013, 24.0598046 ], [ 102.1068452, 24.0597201 ], [ 102.1070859, 24.0596279 ], [ 102.1073228, 24.0595281 ], [ 102.1075559, 24.0594209 ], [ 102.1077634, 24.0593173 ], [ 102.1079674, 24.0592079 ], [ 102.1081674, 24.0590927 ], [ 102.1090407, 24.0584195 ], [ 102.1099073, 24.0577393 ], [ 102.1107673, 24.057052 ], [ 102.1116205, 24.0563578 ], [ 102.112467, 24.0556566 ], [ 102.1133065, 24.0549486 ], [ 102.1141461, 24.0542277 ], [ 102.1149785, 24.0535 ], [ 102.1205056, 24.04932 ], [ 102.1227962, 24.0479239 ], [ 102.1281338, 24.0450531 ], [ 102.1902449, 24.0715861 ], [ 102.1873367, 24.1117664 ], [ 102.1852518, 24.1154065 ], [ 102.1851739, 24.1155334 ], [ 102.1848363, 24.1163563 ], [ 102.1847973, 24.1164578 ], [ 102.175829, 24.1360755 ], [ 102.1757686, 24.1361641 ], [ 102.1749056, 24.1381463 ], [ 102.1748505, 24.1383569 ], [ 102.1665925, 24.1573079 ], [ 102.1503786, 24.1767499 ], [ 102.1503077, 24.1768241 ], [ 102.1468402, 24.1804544 ], [ 102.1468035, 24.1805142 ], [ 102.1201113, 24.2182133 ], [ 102.1145808, 24.2569942 ], [ 102.1003442, 24.2996731 ], [ 102.1009202, 24.299148 ], [ 102.1019107, 24.298203 ], [ 102.1027773, 24.2974206 ], [ 102.1029176, 24.297281 ], [ 102.1101111, 24.2902405 ], [ 102.1102017, 24.2901377 ], [ 102.1309433, 24.2713692 ], [ 102.1310823, 24.2712866 ], [ 102.1312656, 24.2711672 ], [ 102.1342849, 24.2692503 ], [ 102.1344098, 24.2691731 ], [ 102.1394091, 24.2663729 ], [ 102.1404101, 24.2658294 ], [ 102.1480319, 24.2623478 ], [ 102.1948029, 24.307829 ], [ 102.1947921, 24.3078681 ], [ 102.1884032, 24.3210974 ], [ 102.1703786, 24.3405739 ], [ 102.1703357, 24.3406033 ], [ 102.1688551, 24.3418741 ], [ 102.1685761, 24.3422407 ], [ 102.1537811, 24.3630772 ], [ 102.1530515, 24.3640594 ], [ 102.1529871, 24.3641718 ], [ 102.1521181, 24.3656818 ], [ 102.1519679, 24.3660532 ], [ 102.1507717, 24.369488 ], [ 102.1316406, 24.3988747 ], [ 102.1072394, 24.4227592 ], [ 102.1071213, 24.4228423 ], [ 102.1070623, 24.4229644 ], [ 102.0955127, 24.4427886 ], [ 102.0953786, 24.4430328 ], [ 102.0952928, 24.4432525 ], [ 102.0928522, 24.4517002 ], [ 102.0879704, 24.4645921 ], [ 102.0282778, 24.4936527 ], [ 102.0193917, 24.4875879 ], [ 102.0186675, 24.4869875 ], [ 102.013877, 24.4867298 ], [ 102.0117688, 24.4924268 ], [ 102.0123484, 24.5051665 ], [ 102.012343, 24.5055716 ], [ 102.0124557, 24.5086711 ], [ 102.0124718, 24.5089396 ], [ 102.0128366, 24.5101159 ], [ 102.0137217, 24.5111653 ], [ 102.0364953, 24.5494568 ], [ 102.0364942, 24.5494995 ], [ 102.0365113, 24.5495578 ], [ 102.0334028, 24.5875128 ], [ 101.9698315, 24.5755545 ], [ 101.9690223, 24.5756948 ], [ 101.9593633, 24.5781019 ], [ 101.9593062, 24.5781134 ], [ 101.9323727, 24.58477 ], [ 101.9065101, 24.5832378 ], [ 101.9063755, 24.5832102 ], [ 101.9062901, 24.5832326 ], [ 101.8904615, 24.5866734 ], [ 101.8908198, 24.5872768 ], [ 101.8909226, 24.5873986 ], [ 101.8910285, 24.5874694 ], [ 101.8928292, 24.5884326 ], [ 101.8929725, 24.5885091 ], [ 101.8930815, 24.5885431 ], [ 101.893175, 24.5885601 ], [ 101.9420197, 24.6268641 ], [ 101.942109, 24.6270509 ], [ 101.9422365, 24.6272905 ], [ 101.9424022, 24.6275252 ], [ 101.9433878, 24.6289761 ], [ 101.9189164, 24.6915281 ], [ 101.9106415, 24.6913537 ], [ 101.9087291, 24.6911246 ], [ 101.9083176, 24.6910985 ], [ 101.9079056, 24.6910812 ], [ 101.9074933, 24.6910725 ], [ 101.9070808, 24.6910727 ], [ 101.9066685, 24.6910816 ], [ 101.9062565, 24.6910993 ], [ 101.9058451, 24.6911257 ], [ 101.9054345, 24.6911608 ], [ 101.9050249, 24.6912047 ], [ 101.9046165, 24.6912572 ], [ 101.9042096, 24.6913184 ], [ 101.9038044, 24.6913882 ], [ 101.903401, 24.6914666 ], [ 101.9029999, 24.6915535 ], [ 101.9006127, 24.6920629 ], [ 101.8984696, 24.6929426 ], [ 101.8963936, 24.6939564 ], [ 101.8847909, 24.6982434 ], [ 101.8841787, 24.6983997 ], [ 101.8797612, 24.699527 ], [ 101.8302159, 24.689887 ], [ 101.7639783, 24.7067106 ], [ 101.7631629, 24.7063353 ], [ 101.7567553, 24.7032262 ], [ 101.7269343, 24.6886072 ], [ 101.7178926, 24.6810131 ], [ 101.7177209, 24.6808937 ], [ 101.7159533, 24.6801041 ], [ 101.7157388, 24.6800066 ], [ 101.7155644, 24.67997 ], [ 101.6942623, 24.6754758 ], [ 101.6915077, 24.6750517 ], [ 101.6912341, 24.6750297 ], [ 101.6297149, 24.650557 ], [ 101.6277869, 24.64846 ], [ 101.6262639, 24.6471539 ], [ 101.624325, 24.646167 ], [ 101.623368, 24.6467372 ], [ 101.6233081, 24.6468012 ], [ 101.5971112, 24.6758829 ], [ 101.6041488, 24.7183891 ], [ 101.576955, 24.7610239 ], [ 101.5744459, 24.7633559 ], [ 101.574198, 24.76358 ], [ 101.558981, 24.779786 ], [ 101.5589579, 24.779861 ], [ 101.5442141, 24.8118419 ], [ 101.5438273, 24.8126331 ], [ 101.541925, 24.818288 ], [ 101.4863884, 24.8557343 ], [ 101.4862597, 24.8564257 ], [ 101.4862436, 24.8567658 ], [ 101.4862597, 24.8568875 ], [ 101.4511547, 24.9151739 ], [ 101.4441917, 24.9162539 ], [ 101.4443076, 24.9165069 ], [ 101.4576564, 24.9429022 ], [ 101.4358722, 25.0005466 ], [ 101.4354913, 25.001553 ], [ 101.4352068, 25.0036683 ], [ 101.4351692, 25.0069256 ], [ 101.4127192, 25.0694428 ], [ 101.370984, 25.1237925 ], [ 101.3707343, 25.1238494 ], [ 101.3704772, 25.1239227 ], [ 101.3703465, 25.1239656 ], [ 101.3702132, 25.1240132 ], [ 101.3700775, 25.1240657 ], [ 101.3699394, 25.1241232 ], [ 101.3697991, 25.1241857 ], [ 101.3696611, 25.1242523 ], [ 101.3694639, 25.1243591 ], [ 101.3692789, 25.124473 ], [ 101.3691049, 25.1245935 ], [ 101.3526167, 25.1342374 ], [ 101.3524867, 25.1343052 ], [ 101.3523019, 25.1344076 ], [ 101.3521303, 25.1345107 ], [ 101.3519679, 25.1346165 ], [ 101.3518141, 25.1347249 ], [ 101.3516684, 25.134836 ], [ 101.2976025, 25.1679944 ], [ 101.2973465, 25.1681085 ], [ 101.2961548, 25.1686823 ], [ 101.2763305, 25.1827197 ], [ 101.2741043, 25.1843105 ], [ 101.2729004, 25.1851968 ], [ 101.2721505, 25.1858425 ], [ 101.2663981, 25.1911899 ], [ 101.2639466, 25.1934771 ], [ 101.2558487, 25.2011226 ], [ 101.2511611, 25.2055338 ], [ 101.2509575, 25.2058597 ], [ 101.2664888, 25.205711 ], [ 101.2780039, 25.2044043 ], [ 101.2792817, 25.2043053 ], [ 101.2809365, 25.2026346 ], [ 101.3215917, 25.1739066 ], [ 101.3219006, 25.1737262 ], [ 101.3222319, 25.1735222 ], [ 101.3225842, 25.1732974 ], [ 101.323084, 25.1729699 ], [ 101.324536, 25.1720042 ], [ 101.3926044, 25.1738425 ], [ 101.4097689, 25.1393376 ], [ 101.4777018, 25.1447559 ], [ 101.4798261, 25.1485096 ], [ 101.4800192, 25.1488446 ], [ 101.4896906, 25.1811966 ], [ 101.5166513, 25.2140999 ], [ 101.5180981, 25.2170803 ], [ 101.5214737, 25.2259288 ], [ 101.5016869, 25.2844334 ], [ 101.4662717, 25.3037655 ], [ 101.4660786, 25.3038382 ], [ 101.465955, 25.3039314 ], [ 101.4656495, 25.3049634 ], [ 101.4783878, 25.344304 ], [ 101.4708272, 25.378375 ], [ 101.4706855, 25.3786738 ], [ 101.4705528, 25.3789759 ], [ 101.4704897, 25.3791281 ], [ 101.4704293, 25.3792812 ], [ 101.4703382, 25.3795277 ], [ 101.470254, 25.3797761 ], [ 101.4701767, 25.3800263 ], [ 101.4701064, 25.3802782 ], [ 101.4700734, 25.3804047 ], [ 101.4700431, 25.3805317 ], [ 101.4699988, 25.380744 ], [ 101.4699621, 25.3809575 ], [ 101.4699331, 25.3811719 ], [ 101.4699118, 25.3813871 ], [ 101.4609746, 25.4245084 ], [ 101.4609161, 25.4247683 ], [ 101.4608662, 25.4250296 ], [ 101.4608248, 25.4252921 ], [ 101.4607921, 25.4255557 ], [ 101.4578478, 25.4433115 ] ] ] } }
]
}
