{
"type": "FeatureCollection",
"name": "isochrone_6h",
"crs": { "type": "name", "properties": { "name": "urn:ogc:def:crs:OGC:1.3:CRS84" } },
"features": [
{ "type": "Feature", "properties": { "threshold_h": 6, "label": "6h" }, "geometry": { "type": "Polygon", "coordinates": [ [ [ 99.7692495, 27.6094879 ], [ 99.7574837, 27.6453164 ], [ 99.7607602, 27.643795 ], [ 99.7610587, 27.643639 ], [ 99.7613515, 27.6434757 ], [ 99.7616387, 27.6433049 ], [ 99.7617057, 27.6432626 ], [ 99.7619203, 27.6431269 ], [ 99.7621928, 27.6429439 ], [ 99.7624592, 27.6427541 ], [ 99.7627194, 27.6425576 ], [ 99.7629732, 27.6423547 ], [ 99.7632203, 27.6421454 ], [ 99.7634606, 27.6419299 ], [ 99.7636938, 27.6417084 ], [ 99.7639196, 27.6414812 ], [ 99.7643471, 27.6410321 ], [ 99.7645506, 27.6408091 ], [ 99.764747, 27.6405809 ], [ 99.764936, 27.640348 ], [ 99.7651176, 27.6401103 ], [ 99.7652915, 27.6398682 ], [ 99.8273872, 27.5631144 ], [ 99.8922125, 27.4986036 ], [ 99.8924053, 27.4984316 ], [ 99.8929744, 27.4978744 ], [ 99.8949772, 27.4957377 ], [ 99.8986585, 27.4918423 ], [ 99.9006361, 27.489724 ], [ 99.9008463, 27.4894885 ], [ 99.9009836, 27.4893244 ], [ 99.9010482, 27.4892471 ], [ 99.9011882, 27.4890684 ], [ 99.9012416, 27.4890001 ], [ 99.901426, 27.488748 ], [ 99.9015941, 27.488502 ], [ 99.9017537, 27.4882518 ], [ 99.9019047, 27.4879974 ], [ 99.9020471, 27.4877391 ], [ 99.9021807, 27.4874771 ], [ 99.9491743, 27.4181544 ], [ 99.9511248, 27.4160168 ], [ 99.9512223, 27.4157589 ], [ 99.9987686, 27.3455913 ], [ 99.9990055, 27.3453746 ], [ 99.9992347, 27.3451515 ], [ 100.2108223, 27.3276755 ], [ 100.2163114, 27.3294433 ], [ 100.2163759, 27.3294612 ], [ 100.2164604, 27.3294671 ], [ 100.3629184, 27.3224649 ], [ 100.4036886, 27.2910303 ], [ 100.4026137, 27.2103634 ], [ 100.413767, 27.1332896 ], [ 100.6226108, 27.1538823 ], [ 100.6243271, 27.159438 ], [ 100.6243789, 27.1596025 ], [ 100.6244751, 27.1598757 ], [ 100.6245528, 27.1600863 ], [ 100.6245935, 27.1601258 ], [ 100.6503818, 27.1775058 ], [ 100.6504987, 27.1775242 ], [ 100.7630448, 27.2722082 ], [ 100.680616, 27.4406521 ], [ 100.6804865, 27.4407069 ], [ 100.6524037, 27.4526417 ], [ 100.6514643, 27.4529807 ], [ 100.7005334, 27.5167022 ], [ 100.7215833, 27.5376716 ], [ 100.8142725, 27.5935434 ], [ 100.8229048, 27.5939651 ], [ 100.8894203, 27.4884843 ], [ 100.8895084, 27.4883196 ], [ 100.8895571, 27.4881561 ], [ 100.8970535, 27.4638995 ], [ 101.064687, 27.354391 ], [ 101.065463, 27.354412 ], [ 101.068633, 27.354495 ], [ 101.069062, 27.354424 ], [ 101.069948, 27.353652 ], [ 101.071022, 27.352237 ], [ 101.0724603, 27.3488749 ], [ 100.9757238, 27.2252463 ], [ 100.9773234, 27.0749319 ], [ 101.1311299, 26.9795356 ], [ 101.1326126, 26.9795216 ], [ 101.1345079, 26.9795123 ], [ 101.1465789, 26.9798752 ], [ 101.1749082, 26.9802475 ], [ 101.1751902, 26.9802568 ], [ 101.1754094, 26.9802382 ], [ 101.1755974, 26.9802196 ], [ 101.1760354, 26.9801354 ], [ 101.1762714, 26.9799681 ], [ 101.1763457, 26.9799012 ], [ 101.2530901, 26.8071851 ], [ 101.4385216, 26.720302 ], [ 101.4386504, 26.7202752 ], [ 101.438806, 26.720141 ], [ 101.4390527, 26.7196887 ], [ 101.4392888, 26.7190773 ], [ 101.4878948, 26.5991637 ], [ 101.4864403, 26.5764942 ], [ 101.5395076, 26.4713517 ], [ 101.7159201, 26.4814021 ], [ 101.7159851, 26.4814405 ], [ 101.7360948, 26.4928484 ], [ 101.7363008, 26.4929664 ], [ 101.7342763, 26.4901981 ], [ 101.7323135, 26.4877756 ], [ 101.7269731, 26.4834555 ], [ 101.717198, 26.2725064 ], [ 101.831342, 26.2010512 ], [ 101.9387376, 26.1642637 ], [ 101.9399875, 26.163657 ], [ 101.940068, 26.1635463 ], [ 101.9406205, 26.1613314 ], [ 101.9407514, 26.1606145 ], [ 101.9407385, 26.1602674 ], [ 101.9404301, 26.1586688 ], [ 101.9402727, 26.1581218 ], [ 101.9400326, 26.1573163 ], [ 101.9393138, 26.1552217 ], [ 101.9313401, 26.131225 ], [ 102.0736094, 25.9791949 ], [ 102.2209114, 26.1167205 ], [ 102.2201984, 26.1359732 ], [ 102.2162309, 26.1608067 ], [ 102.2177973, 26.1628386 ], [ 102.2178403, 26.1628891 ], [ 102.2178885, 26.1629349 ], [ 102.2233871, 26.1671959 ], [ 102.2234997, 26.1672825 ], [ 102.2242615, 26.1678097 ], [ 102.2272369, 26.1697472 ], [ 102.2297803, 26.1710165 ], [ 102.389209, 26.3097658 ], [ 102.3962313, 26.3118384 ], [ 102.5920705, 26.3692689 ], [ 102.5925015, 26.369474 ], [ 102.6244167, 26.3526344 ], [ 102.6246147, 26.3525379 ], [ 102.6248026, 26.3524297 ], [ 102.6310564, 26.3489328 ], [ 102.631534, 26.3486034 ], [ 102.6319435, 26.3482051 ], [ 102.6323204, 26.3477617 ], [ 102.6326686, 26.3472327 ], [ 102.8247619, 26.3033463 ], [ 102.8552701, 26.3309906 ], [ 102.8785612, 26.3566015 ], [ 102.8788414, 26.3568358 ], [ 102.8792898, 26.3571706 ], [ 102.9922871, 26.4834302 ], [ 103.0138503, 26.6823947 ], [ 103.0138154, 26.6825556 ], [ 103.0128039, 26.6883348 ], [ 103.0127815, 26.688457 ], [ 103.0047703, 26.7282075 ], [ 103.0047534, 26.7282806 ], [ 102.996911, 26.758625 ], [ 102.9495549, 26.8645775 ], [ 102.9382718, 26.8807081 ], [ 102.9381586, 26.8808608 ], [ 102.9380539, 26.8810183 ], [ 102.9171477, 26.9111421 ], [ 102.8737169, 26.9718123 ], [ 102.8868511, 27.0376861 ], [ 102.8851563, 27.2193441 ], [ 102.880571, 27.255691 ], [ 102.87857, 27.2766959 ], [ 102.8728172, 27.3385423 ], [ 102.941487, 27.414259 ], [ 102.942366, 27.4152439 ], [ 102.944447, 27.417153 ], [ 102.944692, 27.417284 ], [ 102.9452943, 27.4175384 ], [ 102.945458, 27.4176029 ], [ 102.949078, 27.418463 ], [ 102.9505703, 27.4184507 ], [ 102.951689, 27.418362 ], [ 103.0614396, 27.4196914 ], [ 103.156034, 27.4997568 ], [ 103.1774572, 27.5653952 ], [ 103.2747645, 27.6387185 ], [ 103.2795424, 27.6431385 ], [ 103.3213885, 27.6729421 ], [ 103.363363, 27.7123471 ], [ 103.3638174, 27.7128256 ], [ 103.3777029, 27.724858 ], [ 103.4655529, 27.7829101 ], [ 103.5046865, 27.8954843 ], [ 103.5041655, 27.9079548 ], [ 103.5041181, 27.9086403 ], [ 103.4503682, 28.0604838 ], [ 103.4499281, 28.061345 ], [ 103.4499221, 28.0615647 ], [ 103.4498998, 28.0650136 ], [ 103.4499648, 28.0654788 ], [ 103.4727563, 28.1178492 ], [ 103.4727899, 28.1178953 ], [ 103.5718503, 28.2239226 ], [ 103.5721863, 28.224166 ], [ 103.5732914, 28.2249357 ], [ 103.6315556, 28.2557413 ], [ 103.6371692, 28.2574546 ], [ 103.6374499, 28.257466 ], [ 103.6379059, 28.2573699 ], [ 103.651861, 28.253751 ], [ 103.7972735, 28.2663515 ], [ 103.8478503, 28.3564957 ], [ 103.8478643, 28.3565836 ], [ 103.8493289, 28.3658824 ], [ 103.8495469, 28.3669647 ], [ 103.8497674, 28.3677013 ], [ 103.8549089, 28.3858773 ], [ 103.875711, 28.5420483 ], [ 103.8429907, 28.6441955 ], [ 103.8422047, 28.6461159 ], [ 103.8415271, 28.6478775 ], [ 103.8354168, 28.6725674 ], [ 103.8747129, 28.6949541 ], [ 103.8749596, 28.6950482 ], [ 103.8752171, 28.6950393 ], [ 103.8754853, 28.694964 ], [ 103.8776039, 28.6942499 ], [ 103.9816432, 28.599808 ], [ 104.166677, 28.5257128 ], [ 104.2339884, 28.5664653 ], [ 104.235936, 28.5682072 ], [ 104.2360315, 28.5682859 ], [ 104.2375549, 28.5692198 ], [ 104.4107565, 28.6243131 ], [ 104.4142935, 28.6254938 ], [ 104.4170822, 28.615932 ], [ 104.4168415, 28.600332 ], [ 104.3512191, 28.5598141 ], [ 104.34598, 28.5575373 ], [ 104.271081, 28.3934779 ], [ 104.3126535, 28.3350053 ], [ 104.3789416, 28.200801 ], [ 104.4583648, 28.142824 ], [ 104.4593706, 28.1306008 ], [ 104.4594066, 28.1302445 ], [ 104.4592848, 28.1298344 ], [ 104.4524838, 28.1198263 ], [ 104.451666, 28.1186963 ], [ 104.4404552, 28.1051827 ], [ 104.4402072, 28.1048382 ], [ 104.4371784, 28.1016499 ], [ 104.5400511, 27.915974 ], [ 104.6990713, 27.8609014 ], [ 104.8899195, 27.832606 ], [ 105.0106179, 27.7498749 ], [ 105.145116, 27.6430944 ], [ 105.15535, 27.6314639 ], [ 105.1508972, 27.6125113 ], [ 105.0490062, 27.4406405 ], [ 105.0384727, 27.4179984 ], [ 105.0069406, 27.3697855 ], [ 104.8925855, 27.3064048 ], [ 104.8310188, 27.3189804 ], [ 104.8144013, 27.3245435 ], [ 104.6172023, 27.3878393 ], [ 104.5718478, 27.3859415 ], [ 104.5611092, 27.3852208 ], [ 104.554196, 27.3868962 ], [ 104.3582461, 27.4281395 ], [ 104.2828757, 27.3339265 ], [ 104.2765671, 27.3330497 ], [ 104.1555571, 27.2900007 ], [ 104.1552831, 27.2898822 ], [ 104.1552053, 27.2898789 ], [ 104.0493891, 27.3123779 ], [ 103.9103146, 27.2797415 ], [ 103.910087, 27.2796268 ], [ 103.9098291, 27.2795527 ], [ 103.9071984, 27.2790069 ], [ 103.7946439, 27.2233033 ], [ 103.7242277, 27.0728088 ], [ 103.7941375, 26.8980145 ], [ 103.7941781, 26.8979502 ], [ 103.7951374, 26.8963486 ], [ 103.7954968, 26.8955544 ], [ 103.8014493, 26.8753408 ], [ 103.8041349, 26.8661102 ], [ 103.8041469, 26.8658671 ], [ 103.7518307, 26.7700174 ], [ 103.7468721, 26.7459354 ], [ 103.7468541, 26.7458669 ], [ 103.7439536, 26.7415001 ], [ 103.7439175, 26.7414437 ], [ 103.7152719, 26.6417242 ], [ 103.7152559, 26.6416187 ], [ 103.7152022, 26.6413406 ], [ 103.7841959, 26.4967475 ], [ 103.9084311, 26.5351846 ], [ 103.9671181, 26.4796729 ], [ 104.0304485, 26.4476837 ], [ 104.221016, 26.5305155 ], [ 104.228858, 26.5807279 ], [ 104.2288522, 26.5809804 ], [ 104.2288593, 26.5813007 ], [ 104.2288806, 26.5816376 ], [ 104.2289148, 26.5819894 ], [ 104.2289696, 26.582416 ], [ 104.2290494, 26.5829211 ], [ 104.2291093, 26.5832472 ], [ 104.2291449, 26.5834403 ], [ 104.2292125, 26.5837722 ], [ 104.2348852, 26.6158975 ], [ 104.234907, 26.6161644 ], [ 104.2349372, 26.6164355 ], [ 104.2349977, 26.6168482 ], [ 104.2350478, 26.6171262 ], [ 104.2351054, 26.6174057 ], [ 104.2351703, 26.6176858 ], [ 104.2352805, 26.6181053 ], [ 104.2353623, 26.6183835 ], [ 104.2354966, 26.6187964 ], [ 104.2356442, 26.619202 ], [ 104.2357495, 26.6194668 ], [ 104.2359172, 26.619854 ], [ 104.2360351, 26.6201042 ], [ 104.2361575, 26.6203471 ], [ 104.2362842, 26.620582 ], [ 104.2364149, 26.6208081 ], [ 104.2365493, 26.6210245 ], [ 104.2366873, 26.6212306 ], [ 104.256849, 26.6551781 ], [ 104.2579698, 26.6571647 ], [ 104.2600807, 26.6589343 ], [ 104.2683559, 26.6632914 ], [ 104.4180214, 26.7531095 ], [ 104.4182111, 26.7532721 ], [ 104.4184463, 26.7533805 ], [ 104.4185753, 26.7534076 ], [ 104.4195994, 26.7535972 ], [ 104.4199948, 26.7536292 ], [ 104.4272162, 26.7444854 ], [ 104.4274514, 26.7440857 ], [ 104.4298563, 26.7393906 ], [ 104.4300915, 26.7385234 ], [ 104.4301901, 26.7380966 ], [ 104.4302053, 26.7379814 ], [ 104.430137, 26.7329066 ], [ 104.4301294, 26.7327914 ], [ 104.4252929, 26.7158279 ], [ 104.5182938, 26.5668498 ], [ 104.5876617, 26.5767861 ], [ 104.5878968, 26.5768879 ], [ 104.592828, 26.5790319 ], [ 104.593837, 26.5793711 ], [ 104.5956047, 26.5799817 ], [ 104.5968109, 26.5803345 ], [ 104.5969399, 26.580321 ], [ 104.6108937, 26.5771253 ], [ 104.6942351, 26.3961666 ], [ 104.6619335, 26.3373454 ], [ 104.6612763, 26.3365257 ], [ 104.6612307, 26.3364968 ], [ 104.5243417, 26.1859026 ], [ 104.5017128, 26.041537 ], [ 104.5001889, 26.0059168 ], [ 104.4956716, 25.8819382 ], [ 104.4720679, 25.8584029 ], [ 104.3668055, 25.8088078 ], [ 104.391925, 25.6489716 ], [ 104.4300602, 25.6233689 ], [ 104.4338477, 25.6206692 ], [ 104.5542562, 25.5379426 ], [ 104.5612112, 25.5227583 ], [ 104.6511376, 25.3832264 ], [ 104.7731885, 25.2870754 ], [ 104.7735739, 25.2867828 ], [ 104.7758681, 25.2845219 ], [ 104.7835786, 25.2733831 ], [ 104.7863319, 25.2694572 ], [ 104.8064776, 25.2412616 ], [ 104.8084865, 25.2382424 ], [ 104.809057, 25.2373745 ], [ 104.850286, 25.1721258 ], [ 104.8523797, 25.1304832 ], [ 104.7376061, 25.0436065 ], [ 104.6604383, 24.9794873 ], [ 104.5968202, 24.8449078 ], [ 104.5618005, 24.7850698 ], [ 104.6043811, 24.6094267 ], [ 104.6346754, 24.4262692 ], [ 104.7956094, 24.4626516 ], [ 104.8012824, 24.4709087 ], [ 104.954421, 24.450034 ], [ 104.954717, 24.450048 ], [ 104.954886, 24.450004 ], [ 104.9590109, 24.4479273 ], [ 105.0271614, 24.3527245 ], [ 105.111688, 24.2976075 ], [ 105.1507332, 24.2069449 ], [ 105.1361239, 24.0560164 ], [ 105.233147, 23.960925 ], [ 105.239271, 23.958261 ], [ 105.239541, 23.958091 ], [ 105.324397, 23.920466 ], [ 105.4506522, 23.9054944 ], [ 105.5443856, 24.0000682 ], [ 105.5444178, 24.0001099 ], [ 105.5680275, 24.0279328 ], [ 105.5859233, 24.0558474 ], [ 105.5859434, 24.0558719 ], [ 105.5859689, 24.0558921 ], [ 105.5880094, 24.057034 ], [ 105.58803, 24.0570429 ], [ 105.5889145, 24.0573043 ], [ 105.6154682, 24.0555205 ], [ 105.6155218, 24.0554837 ], [ 105.6156942, 24.0552057 ], [ 105.6467065, 24.0052922 ], [ 105.6467527, 24.0052343 ], [ 105.6467921, 24.0051734 ], [ 105.646828, 24.0051129 ], [ 105.647379, 24.0039668 ], [ 105.6473904, 24.0039388 ], [ 105.6905314, 23.9418206 ], [ 105.8870673, 23.8886727 ], [ 105.9343654, 23.9568913 ], [ 105.9344137, 23.9569869 ], [ 105.9344485, 23.9570261 ], [ 105.9345451, 23.9570923 ], [ 105.9398907, 23.9607052 ], [ 105.9451157, 23.9626685 ], [ 105.9454778, 23.9627298 ], [ 105.9577972, 23.964872 ], [ 105.9580386, 23.9648916 ], [ 105.9582746, 23.964872 ], [ 105.9648299, 23.9642641 ], [ 105.9999186, 23.9487582 ], [ 106.1971956, 23.9219132 ], [ 106.1974056, 23.9218932 ], [ 106.2021156, 23.9204732 ], [ 106.2053156, 23.9194832 ], [ 106.2056556, 23.9193732 ], [ 106.2058056, 23.9190632 ], [ 106.2065056, 23.9145933 ], [ 106.1960956, 23.9023676 ], [ 106.1957356, 23.9021876 ], [ 106.1631739, 23.6939161 ], [ 106.1701423, 23.6888663 ], [ 106.1706358, 23.6884094 ], [ 106.1707561, 23.6882372 ], [ 106.1708142, 23.6880398 ], [ 106.1713143, 23.6818549 ], [ 106.1713275, 23.6816561 ], [ 106.1490762, 23.5855763 ], [ 106.1490186, 23.5853394 ], [ 106.1393613, 23.5666257 ], [ 106.1204839, 23.5471106 ], [ 106.1187565, 23.5455074 ], [ 106.1157632, 23.5433927 ], [ 106.1148941, 23.5427829 ], [ 106.1145723, 23.5426649 ], [ 106.0094267, 23.5306945 ], [ 106.009251, 23.5306486 ], [ 106.0091609, 23.5306353 ], [ 105.9799733, 23.5266838 ], [ 105.9797747, 23.5266643 ], [ 105.9782534, 23.5266593 ], [ 105.9781681, 23.5266648 ], [ 105.9780156, 23.5266892 ], [ 105.9778829, 23.5267288 ], [ 105.8084244, 23.4310077 ], [ 105.805899, 23.3763088 ], [ 105.7890058, 23.3671931 ], [ 105.7495464, 23.3429602 ], [ 105.7341318, 23.3354279 ], [ 105.6254983, 23.1538851 ], [ 105.6246909, 23.1540084 ], [ 105.6244656, 23.1540775 ], [ 105.6197932, 23.1558334 ], [ 105.6196028, 23.1559394 ], [ 105.6170037, 23.1577841 ], [ 105.5281334, 23.2117578 ], [ 105.5250253, 23.2134195 ], [ 105.4807408, 23.2456134 ], [ 105.3062545, 23.2602709 ], [ 105.2968204, 23.2567708 ], [ 105.2967137, 23.2567423 ], [ 105.1833012, 23.1987489 ], [ 105.0648815, 23.1639666 ], [ 105.0249055, 23.1455797 ], [ 104.9509547, 23.1095081 ], [ 104.9182456, 23.1029816 ], [ 104.8782442, 22.9072191 ], [ 104.8792917, 22.9062568 ], [ 104.893384, 22.8950987 ], [ 104.8971292, 22.8912571 ], [ 104.8977006, 22.8906701 ], [ 104.8977851, 22.8905461 ], [ 104.899565, 22.8877296 ], [ 104.8996965, 22.8874815 ], [ 104.8997905, 22.8872291 ], [ 104.8998108, 22.8870099 ], [ 104.8996643, 22.8843496 ], [ 104.7642014, 22.8224731 ], [ 104.7641585, 22.8225126 ], [ 104.6760808, 22.8693125 ], [ 104.6758369, 22.8693497 ], [ 104.645698, 22.8710054 ], [ 104.5259445, 22.7175127 ], [ 104.5259488, 22.717459 ], [ 104.5259357, 22.7174223 ], [ 104.5252186, 22.7159548 ], [ 104.5220335, 22.7099064 ], [ 104.5219959, 22.7098514 ], [ 104.5155621, 22.702999 ], [ 104.5143456, 22.7024285 ], [ 104.5142806, 22.7024093 ], [ 104.5130695, 22.7021161 ], [ 104.5130132, 22.7021031 ], [ 104.4629429, 22.6937659 ], [ 104.4005026, 22.6825335 ], [ 104.4004261, 22.6825311 ], [ 104.3908949, 22.6822384 ], [ 104.3908104, 22.6822434 ], [ 104.3795319, 22.6833309 ], [ 104.3794019, 22.6833475 ], [ 104.3789628, 22.6835764 ], [ 104.3789221, 22.6835995 ], [ 104.2817106, 22.7533618 ], [ 104.1100011, 22.6781631 ], [ 104.0997854, 22.6421254 ], [ 104.0997572, 22.6419644 ], [ 104.0995976, 22.641254 ], [ 104.0995829, 22.6411946 ], [ 104.0986213, 22.6393602 ], [ 104.0984014, 22.6390037 ], [ 104.0612986, 22.5482342 ], [ 104.0325276, 22.514035 ], [ 103.9795201, 22.4883999 ], [ 103.9627671, 22.4958072 ], [ 103.9258094, 22.5203646 ], [ 103.8475529, 22.5960167 ], [ 103.8474109, 22.5961227 ], [ 103.8473295, 22.5961899 ], [ 103.8472397, 22.5962712 ], [ 103.8471601, 22.5963508 ], [ 103.8470877, 22.5964301 ], [ 103.8470029, 22.5965315 ], [ 103.8469649, 22.596577 ], [ 103.8464552, 22.5972114 ], [ 103.8461566, 22.5975979 ], [ 103.845918, 22.5979219 ], [ 103.8458054, 22.5980821 ], [ 103.8457006, 22.5982378 ], [ 103.816727, 22.635264 ], [ 103.816361, 22.635681 ], [ 103.807229, 22.645873 ], [ 103.78439, 22.669083 ], [ 103.78399, 22.669451 ], [ 103.7837406, 22.6697624 ], [ 103.7582168, 22.6955928 ], [ 103.5607845, 22.6867781 ], [ 103.5595234, 22.6863663 ], [ 103.5549475, 22.6882274 ], [ 103.5524442, 22.6906424 ], [ 103.537029, 22.7069449 ], [ 103.5367092, 22.7072707 ], [ 103.5176739, 22.7250912 ], [ 103.5126833, 22.7316987 ], [ 103.5078538, 22.7508725 ], [ 103.4871739, 22.789989 ], [ 103.2926094, 22.7483963 ], [ 103.2876044, 22.7100061 ], [ 103.2875991, 22.7099072 ], [ 103.2817304, 22.6864838 ], [ 103.2817036, 22.6863799 ], [ 103.2706948, 22.6227975 ], [ 103.2826786, 22.5458202 ], [ 103.2824895, 22.5456752 ], [ 103.199349, 22.4705213 ], [ 103.0782678, 22.5767031 ], [ 103.0781834, 22.5767731 ], [ 102.964363, 22.684658 ], [ 102.900146, 22.709688 ], [ 102.872902, 22.720499 ], [ 102.843987, 22.729897 ], [ 102.809814, 22.738323 ], [ 102.79158, 22.742474 ], [ 102.749176, 22.748671 ], [ 102.748611, 22.748713 ], [ 102.748146, 22.748978 ], [ 102.715446, 22.76507 ], [ 102.6598843, 22.7754747 ], [ 102.5098287, 22.7032886 ], [ 102.4978561, 22.591168 ], [ 102.4930429, 22.5913586 ], [ 102.4928109, 22.5913871 ], [ 102.4926835, 22.5914168 ], [ 102.4861429, 22.5933522 ], [ 102.4860705, 22.5933825 ], [ 102.3009356, 22.5703363 ], [ 102.3170874, 22.3614023 ], [ 102.3161821, 22.3604548 ], [ 102.3160735, 22.3603779 ], [ 102.3159776, 22.3603463 ], [ 102.3159099, 22.3603356 ], [ 102.3140216, 22.3600454 ], [ 102.31398, 22.3600454 ], [ 102.3139157, 22.3600517 ], [ 102.2992346, 22.3616851 ], [ 102.299138, 22.3617074 ], [ 102.272145, 22.3678038 ], [ 102.2683684, 22.36859 ], [ 102.2541587, 22.3735042 ], [ 102.2164064, 22.3983279 ], [ 102.2158501, 22.3986528 ], [ 102.1862737, 22.4146854 ], [ 102.1862321, 22.4147067 ], [ 102.1750065, 22.4214046 ], [ 102.0227054, 22.4660051 ], [ 101.8995121, 22.4382078 ], [ 101.7767642, 22.3193002 ], [ 101.6104154, 22.3596429 ], [ 101.527916, 22.25259 ], [ 101.525932, 22.243874 ], [ 101.5216664, 22.2305592 ], [ 101.5216254, 22.2304851 ], [ 101.505501, 22.196356 ], [ 101.505028, 22.195133 ], [ 101.502258, 22.187746 ], [ 101.501633, 22.186087 ], [ 101.500725, 22.183945 ], [ 101.500587, 22.183676 ], [ 101.466957, 22.114662 ], [ 101.46479, 22.108618 ], [ 101.4307459, 21.9422921 ], [ 101.4307466, 21.9421754 ], [ 101.430738, 21.9420404 ], [ 101.4307165, 21.9418521 ], [ 101.4278385, 21.8882409 ], [ 101.4278368, 21.8881434 ], [ 101.4278091, 21.8878585 ], [ 101.4202073, 21.839925 ], [ 101.421925, 21.6424491 ], [ 101.4067666, 21.6364553 ], [ 101.4061186, 21.6362694 ], [ 101.4054231, 21.6362118 ], [ 101.404757, 21.6362698 ], [ 101.4042194, 21.636377 ], [ 101.4035621, 21.6365662 ], [ 101.3621163, 21.6479731 ], [ 101.3015766, 21.697123 ], [ 101.301411, 21.6972364 ], [ 101.2838822, 21.7088507 ], [ 101.2836166, 21.7090215 ], [ 101.2834909, 21.7091063 ], [ 101.2832523, 21.7092749 ], [ 101.2831388, 21.7093589 ], [ 101.282922, 21.7095265 ], [ 101.282618, 21.7097782 ], [ 101.1062184, 21.7895878 ], [ 101.0786882, 21.783132 ], [ 101.0773578, 21.7828531 ], [ 101.0692039, 21.7835306 ], [ 101.0678091, 21.7837298 ], [ 101.062552, 21.7848058 ], [ 100.8974076, 21.7743968 ], [ 100.766468, 21.6867957 ], [ 100.7461439, 21.6706131 ], [ 100.7457814, 21.6703258 ], [ 100.7099798, 21.6438334 ], [ 100.7104837, 21.6483443 ], [ 100.710632, 21.6488697 ], [ 100.7187283, 21.702445 ], [ 100.5993175, 21.8717993 ], [ 100.4045988, 21.8304993 ], [ 100.3791825, 21.8131982 ], [ 100.2705726, 21.9865671 ], [ 100.2702856, 21.9870074 ], [ 100.2700335, 21.9875396 ], [ 100.2698806, 21.9880271 ], [ 100.2690491, 21.9907405 ], [ 100.3879636, 22.0606554 ], [ 100.5097819, 22.065286 ], [ 100.6275384, 22.222198 ], [ 100.4797604, 22.3561012 ], [ 100.42176, 22.407626 ], [ 100.41829, 22.409733 ], [ 100.40322, 22.42114 ], [ 100.401475, 22.422608 ], [ 100.396008, 22.427879 ], [ 100.2177212, 22.4808844 ], [ 100.0775777, 22.3791839 ], [ 100.0999169, 22.2460999 ], [ 100.1006939, 22.244523 ], [ 100.11577, 22.213148 ], [ 100.1221199, 22.199891 ], [ 100.1229936, 22.1980581 ], [ 100.124947, 22.19396 ], [ 100.125363, 22.1928199 ], [ 100.080507, 22.232824 ], [ 100.0314179, 22.304779 ], [ 100.0311009, 22.3051909 ], [ 100.02293, 22.3179759 ], [ 100.022685, 22.318361 ], [ 100.018341, 22.3309359 ], [ 100.018223, 22.33142 ], [ 100.011624, 22.3564749 ], [ 100.0057909, 22.3730289 ], [ 99.8070487, 22.4066123 ], [ 99.7930762, 22.3877613 ], [ 99.7906622, 22.3849929 ], [ 99.7904958, 22.3848474 ], [ 99.7902306, 22.3847352 ], [ 99.64851, 22.3681783 ], [ 99.7304044, 22.4564626 ], [ 99.7466652, 22.612218 ], [ 99.7467245, 22.6152784 ], [ 99.7752365, 22.7481351 ], [ 99.794188, 22.8040929 ], [ 99.7942369, 22.8042629 ], [ 99.794318, 22.8044219 ], [ 99.794432, 22.8045649 ], [ 99.799923, 22.809548 ], [ 99.8000619, 22.80967 ], [ 99.9920683, 22.7228941 ], [ 100.1782846, 22.790195 ], [ 100.178444, 22.7903159 ], [ 100.1813754, 22.7923703 ], [ 100.1936146, 22.7998197 ], [ 100.1945491, 22.8002499 ], [ 100.1948066, 22.8002845 ], [ 100.1951553, 22.799973 ], [ 100.355987, 22.6622579 ], [ 100.3575535, 22.6626737 ], [ 100.3611154, 22.6635024 ], [ 100.5172114, 22.7846581 ], [ 100.478987, 22.991535 ], [ 100.477275, 22.994709 ], [ 100.471915, 23.004064 ], [ 100.471863, 23.004177 ], [ 100.4587386, 23.0606965 ], [ 100.4615966, 23.0596911 ], [ 100.4617394, 23.0596253 ], [ 100.4619748, 23.0594668 ], [ 100.4622774, 23.0592541 ], [ 100.5837183, 23.0427629 ], [ 100.6664123, 23.1641777 ], [ 100.6191572, 23.2695713 ], [ 100.5065561, 23.3258128 ], [ 100.3460888, 23.2796227 ], [ 100.345949, 23.2794759 ], [ 100.3302497, 23.2636987 ], [ 100.3301598, 23.2636115 ], [ 100.3299427, 23.2634547 ], [ 100.3265306, 23.2609488 ], [ 100.3263557, 23.2608386 ], [ 100.3256464, 23.2605449 ], [ 100.3256264, 23.2605403 ], [ 100.3243924, 23.2603705 ], [ 100.2984569, 23.4239434 ], [ 100.1476108, 23.514117 ], [ 100.1473948, 23.5141416 ], [ 100.0606788, 23.5141332 ], [ 99.9425683, 23.4679804 ], [ 99.7756702, 23.3565436 ], [ 99.7686677, 23.3498482 ], [ 99.7134692, 23.2943039 ], [ 99.6712518, 23.2535797 ], [ 99.5984995, 23.3547706 ], [ 99.40432, 23.3278176 ], [ 99.3635996, 23.4786115 ], [ 99.363377, 23.4796856 ], [ 99.3672416, 23.5959117 ], [ 99.2088414, 23.6549452 ], [ 99.2084502, 23.6547878 ], [ 99.2080582, 23.6546396 ], [ 99.2076627, 23.6544995 ], [ 99.2073056, 23.6543808 ], [ 99.2069459, 23.6542688 ], [ 99.2065822, 23.654163 ], [ 99.1746621, 23.6409227 ], [ 99.171142, 23.6395813 ], [ 99.1703949, 23.6392995 ], [ 99.1612645, 23.6362791 ], [ 99.1327205, 23.6261599 ], [ 99.1068184, 23.6152723 ], [ 99.1055202, 23.6145989 ], [ 99.0862344, 23.6066345 ], [ 99.086445, 23.6068733 ], [ 99.0866629, 23.6071065 ], [ 99.0868881, 23.6073339 ], [ 99.0871203, 23.6075553 ], [ 99.0873092, 23.6077264 ], [ 99.0875024, 23.6078935 ], [ 99.0876996, 23.6080566 ], [ 99.0879515, 23.6082473 ], [ 99.088209, 23.6084315 ], [ 99.0884719, 23.6086091 ], [ 99.0887402, 23.60878 ], [ 99.0890134, 23.608944 ], [ 99.0892916, 23.609101 ], [ 99.0895743, 23.6092509 ], [ 99.0898615, 23.6093936 ], [ 99.0901273, 23.6095175 ], [ 99.1137789, 23.6211965 ], [ 99.1140657, 23.6213464 ], [ 99.1303558, 23.6299124 ], [ 99.1307244, 23.6301062 ], [ 99.1310978, 23.6302923 ], [ 99.1314926, 23.6304782 ], [ 99.1318922, 23.6306554 ], [ 99.1322962, 23.6308238 ], [ 99.1327046, 23.6309833 ], [ 99.133117, 23.6311338 ], [ 99.1335332, 23.6312752 ], [ 99.2174161, 23.6684441 ], [ 99.224206, 23.6719529 ], [ 99.2349504, 23.6774808 ], [ 99.2357657, 23.6778542 ], [ 99.2383997, 23.6788072 ], [ 99.3062138, 23.7042462 ], [ 99.3066045, 23.7043973 ], [ 99.3069989, 23.7045401 ], [ 99.3659423, 23.7313009 ], [ 99.3662367, 23.7314526 ], [ 99.3665361, 23.731596 ], [ 99.3668402, 23.7317307 ], [ 99.3671487, 23.7318568 ], [ 99.4017421, 23.7474195 ], [ 99.4020674, 23.7475853 ], [ 99.4023969, 23.7477439 ], [ 99.4027304, 23.7478953 ], [ 99.4057774, 23.7492505 ], [ 99.4085455, 23.7504388 ], [ 99.5754084, 23.8726941 ], [ 99.5754996, 23.8727751 ], [ 99.7027004, 23.987139 ], [ 99.743223, 24.094049 ], [ 99.744359, 24.0980229 ], [ 99.8435601, 24.1568479 ], [ 99.844162, 24.1572544 ], [ 99.845271, 24.1579406 ], [ 99.9202151, 24.3210601 ], [ 99.884165, 24.3908891 ], [ 99.8836935, 24.3914266 ], [ 99.8827279, 24.3930388 ], [ 99.819277, 24.474145 ], [ 99.811032, 24.4804499 ], [ 99.80934, 24.4820589 ], [ 99.6620502, 24.5774949 ], [ 99.5679209, 24.7646905 ], [ 99.4643044, 24.786676 ], [ 99.416867, 24.7767653 ], [ 99.2961503, 24.6391766 ], [ 99.290462, 24.5889028 ], [ 99.286499, 24.494993 ], [ 99.286385, 24.494705 ], [ 99.281937, 24.487553 ], [ 99.281639, 24.487373 ], [ 99.281273, 24.487385 ], [ 99.281044, 24.48748 ], [ 99.1640354, 24.5223375 ], [ 99.1629088, 24.5292433 ], [ 99.1617831, 24.543327 ], [ 99.062341, 24.7277142 ], [ 99.0540602, 24.7321743 ], [ 99.0529793, 24.7329826 ], [ 99.0522345, 24.7336071 ], [ 98.920914, 24.7746686 ], [ 98.8196722, 24.6967605 ], [ 98.7635498, 24.6634888 ], [ 98.7562322, 24.6581723 ], [ 98.7244749, 24.6332816 ], [ 98.7154944, 24.7683104 ], [ 98.7154944, 24.7687215 ], [ 98.7163179, 24.7811017 ], [ 98.7189281, 24.8029464 ], [ 98.7216268, 24.8068296 ], [ 98.8328888, 24.9482955 ], [ 98.8278513, 25.0250826 ], [ 98.8330399, 25.0730981 ], [ 98.8384365, 25.2253245 ], [ 98.8354646, 25.2768956 ], [ 98.8354432, 25.2774874 ], [ 98.8367039, 25.2828007 ], [ 98.8367656, 25.2830432 ], [ 98.8696251, 25.4537373 ], [ 98.8347946, 25.6543845 ], [ 98.8347895, 25.6546094 ], [ 98.8345171, 25.6661262 ], [ 98.8358783, 25.6744024 ], [ 98.8388167, 25.6821329 ], [ 98.8439083, 25.8215649 ], [ 98.7781042, 25.9220227 ], [ 98.7710071, 25.9314212 ], [ 98.8363398, 26.0753316 ], [ 98.8600537, 26.1231082 ], [ 98.8601775, 26.1233311 ], [ 98.8652316, 26.0906492 ], [ 98.8662297, 26.084573 ], [ 98.8662525, 26.0844152 ], [ 98.8662551, 26.0839213 ], [ 98.8662364, 26.0837876 ], [ 98.8662082, 26.083678 ], [ 98.8661764, 26.0836054 ], [ 98.856276, 26.056407 ], [ 98.8562344, 26.0562516 ], [ 98.8500224, 26.016002 ], [ 98.9930686, 25.8835529 ], [ 98.999573, 25.8838859 ], [ 99.0001309, 25.8838039 ], [ 99.101615, 25.899475 ], [ 99.102087, 25.8995819 ], [ 99.2068507, 25.9380998 ], [ 99.2969677, 26.1187024 ], [ 99.2920188, 26.1480695 ], [ 99.292001, 26.1482031 ], [ 99.292659, 26.1772511 ], [ 99.2921269, 26.1966865 ], [ 99.15083, 26.3376211 ], [ 99.1442921, 26.3421043 ], [ 99.1428458, 26.3439686 ], [ 99.1399174, 26.3484474 ], [ 99.1378746, 26.3517071 ], [ 99.1370088, 26.3541976 ], [ 99.1363012, 26.3594283 ], [ 99.1360861, 26.3632438 ], [ 99.1358695, 26.368093 ], [ 99.1294088, 26.4303897 ], [ 99.12878, 26.4332559 ], [ 99.1063578, 26.5131897 ], [ 99.1028284, 26.5207864 ], [ 99.1025805, 26.5216361 ], [ 99.1033209, 26.5281052 ], [ 99.1090447, 26.5448125 ], [ 99.1129714, 26.5524137 ], [ 99.1130304, 26.5525193 ], [ 99.1416372, 26.6030004 ], [ 99.1424133, 26.6029853 ], [ 99.2599683, 26.5957197 ], [ 99.4607517, 26.6137951 ], [ 99.456262, 26.7520007 ], [ 99.4556746, 26.7529372 ], [ 99.435955, 26.7777501 ], [ 99.4359087, 26.7778048 ], [ 99.4332996, 26.7810521 ], [ 99.4331943, 26.7812141 ], [ 99.4071078, 26.8135409 ], [ 99.4070575, 26.813598 ], [ 99.4004078, 26.8208152 ], [ 99.400354, 26.8208705 ], [ 99.4002564, 26.8210057 ], [ 99.4001869, 26.821154 ], [ 99.3636599, 26.878673 ], [ 99.3635786, 26.8787644 ], [ 99.363505, 26.8788609 ], [ 99.3634395, 26.878962 ], [ 99.3633825, 26.879067 ], [ 99.3633334, 26.8791772 ], [ 99.3632937, 26.8792904 ], [ 99.3632635, 26.8794058 ], [ 99.363243, 26.879523 ], [ 99.3632229, 26.8797346 ], [ 99.3632218, 26.8798284 ], [ 99.3634951, 26.8853182 ], [ 99.4024724, 26.8681575 ], [ 99.4071133, 26.8663084 ], [ 99.407303, 26.8662346 ], [ 99.4074891, 26.8661536 ], [ 99.4078302, 26.8659814 ], [ 99.4081371, 26.8657968 ], [ 99.4084275, 26.865592 ], [ 99.4085741, 26.8654622 ], [ 99.4087001, 26.8653162 ], [ 99.4087547, 26.8652379 ], [ 99.4890115, 26.7886257 ], [ 99.4902199, 26.7876285 ], [ 99.4905847, 26.7868766 ], [ 99.4906638, 26.7866719 ], [ 99.5050484, 26.7586541 ], [ 99.5050954, 26.7585272 ], [ 99.5182317, 26.7184455 ], [ 99.5182921, 26.7183132 ], [ 99.5303049, 26.6965619 ], [ 99.530504, 26.6960719 ], [ 99.5460558, 26.6496685 ], [ 99.615722, 26.5926934 ], [ 99.7747314, 26.6545641 ], [ 99.7553015, 26.7699627 ], [ 99.7554839, 26.7703075 ], [ 99.7575545, 26.7731907 ], [ 99.7582304, 26.7738038 ], [ 99.7738516, 26.7815143 ], [ 99.7769093, 26.7831904 ], [ 99.7781432, 26.7838609 ], [ 99.7787976, 26.7841769 ], [ 99.7797525, 26.7845313 ], [ 99.7965109, 26.7885156 ], [ 99.8033452, 26.7903831 ], [ 99.8052335, 26.7907662 ], [ 99.8319054, 26.7974413 ], [ 99.9006883, 26.8433137 ], [ 99.9092281, 27.0365846 ], [ 99.9085165, 27.0376326 ], [ 99.9056393, 27.0419313 ], [ 99.8625703, 27.0894778 ], [ 99.8615403, 27.0903673 ], [ 99.8612377, 27.0906273 ], [ 99.859226, 27.0923551 ], [ 99.7194652, 27.1339892 ], [ 99.7168132, 27.134622 ], [ 99.7164942, 27.134743 ], [ 99.7164001, 27.1348221 ], [ 99.7156049, 27.1356997 ], [ 99.6152451, 27.2750108 ], [ 99.6397921, 27.3168005 ], [ 99.6489233, 27.3066257 ], [ 99.694988, 27.272033 ], [ 99.704263, 27.2654549 ], [ 99.708372, 27.262702 ], [ 99.709023, 27.262228 ], [ 99.7091619, 27.2621019 ], [ 99.8785633, 27.3888798 ], [ 99.8632443, 27.4103524 ], [ 99.8629492, 27.4106905 ], [ 99.862681, 27.4111524 ], [ 99.8060785, 27.4931627 ], [ 99.7696615, 27.6087711 ], [ 99.7692495, 27.6094879 ] ] ] } }
]
}
